{"type":"FeatureCollection","features":[{"type":"Feature","id":"lt_c_cademd.1502","geometry":{"type":"MultiPolygon","coordinates":[[[[127.06580843,37.61497315],[127.06564597,37.61493719],[127.06554196,37.61491723],[127.06546974,37.61490201],[127.0654646,37.61490093],[127.06515136,37.61483493],[127.06496254,37.61479363],[127.06490667,37.61478152],[127.06485619,37.61477165],[127.06484222,37.61476743],[127.06483679,37.61476578],[127.06481351,37.61475873],[127.06466172,37.61472104],[127.06457861,37.61470041],[127.06447603,37.61466516],[127.06438465,37.61463512],[127.06390107,37.6144792],[127.06347098,37.61434103],[127.06347011,37.61434075],[127.06342708,37.61432693],[127.06324674,37.61426899],[127.06322167,37.61427322],[127.06308141,37.6142969],[127.06293948,37.61431522],[127.06292144,37.61431755],[127.06288509,37.61432142],[127.06281654,37.61432871],[127.06273967,37.61433688],[127.06269021,37.61434231],[127.06268253,37.61433861],[127.06266072,37.61433433],[127.06263068,37.61432568],[127.06256488,37.61431721],[127.06251251,37.61432091],[127.06241662,37.61431511],[127.06239147,37.61431359],[127.0623089,37.6143163],[127.06221492,37.61433854],[127.06209571,37.61436676],[127.0620263,37.61439171],[127.06196244,37.61441496],[127.06180056,37.61448151],[127.06179077,37.61448385],[127.06179055,37.6144839],[127.06175411,37.61449261],[127.06150123,37.61461338],[127.06149085,37.61461835],[127.06145441,37.61463579],[127.06136174,37.61470032],[127.06136066,37.61470107],[127.06129269,37.6147484],[127.06125936,37.614778],[127.06124767,37.61478837],[127.06121315,37.6148207],[127.06117914,37.61483536],[127.06115786,37.61484296],[127.06115777,37.61482537],[127.06106382,37.61488035],[127.06106503,37.61488978],[127.06110783,37.61490764],[127.06111399,37.61491191],[127.0611452,37.6149122],[127.06111398,37.61494095],[127.06110185,37.61495848],[127.06107808,37.61499281],[127.0610604,37.61503078],[127.06105307,37.61502895],[127.06099707,37.61510987],[127.06099231,37.61512754],[127.06098581,37.61512615],[127.06098285,37.61513042],[127.06097843,37.61512953],[127.06097247,37.61514542],[127.06093421,37.6152007],[127.06091089,37.61523882],[127.06091023,37.61523991],[127.06090216,37.61525513],[127.06090209,37.61525526],[127.0608983,37.61526241],[127.06091622,37.61526669],[127.06091834,37.6152672],[127.06093389,37.61527092],[127.06093987,37.61527235],[127.06094483,37.61527751],[127.06094524,37.61527794],[127.06097858,37.61531265],[127.06097371,37.61532312],[127.06094498,37.61538482],[127.06087407,37.61542358],[127.06082509,37.61540055],[127.0608029,37.61544241],[127.06076979,37.61550495],[127.06076553,37.615513],[127.06074975,37.61554281],[127.06069897,37.61563843],[127.06066572,37.61566266],[127.06065367,37.61567059],[127.06063475,37.61568304],[127.06063456,37.61568316],[127.06057931,37.61571953],[127.06049751,37.61577335],[127.06025265,37.61593672],[127.06020897,37.61596585],[127.06001023,37.61605532],[127.06000927,37.61605575],[127.05992592,37.61609327],[127.05986185,37.61612211],[127.05979452,37.61615366],[127.05976205,37.6161686],[127.05958461,37.61625025],[127.05951986,37.61628095],[127.05946654,37.61630623],[127.05937076,37.61635737],[127.05929488,37.61639841],[127.05926916,37.61641228],[127.05903878,37.61653645],[127.05900805,37.61655301],[127.05899435,37.61656094],[127.05882229,37.61667217],[127.05858964,37.61682258],[127.05848703,37.61688891],[127.05837606,37.61695375],[127.05836265,37.61696158],[127.05835429,37.61696647],[127.05832436,37.61698396],[127.05828277,37.61700481],[127.05827506,37.61700868],[127.0580742,37.61710944],[127.05804229,37.61712545],[127.05788687,37.61721441],[127.05754804,37.61740837],[127.05742057,37.61748134],[127.05740321,37.61749682],[127.05729066,37.61760795],[127.05717199,37.61772643],[127.05701879,37.61788002],[127.05700995,37.61788889],[127.05698001,37.6179189],[127.05688493,37.61801374],[127.05678589,37.61811156],[127.056641,37.61825282],[127.05654833,37.61834109],[127.05651366,37.61837522],[127.05646761,37.61841931],[127.05642542,37.6184597],[127.05635746,37.61852488],[127.05634144,37.61854048],[127.05626167,37.61861814],[127.0562303,37.61864738],[127.05617221,37.61869882],[127.05611679,37.61874789],[127.05603933,37.61881696],[127.05592868,37.61891511],[127.05585008,37.61896565],[127.05576446,37.61902324],[127.05573201,37.61904543],[127.05570936,37.61906061],[127.05570776,37.61906168],[127.05562286,37.61911857],[127.05556036,37.619161],[127.05553374,37.61917627],[127.05551293,37.61918639],[127.05546245,37.61921312],[127.05533321,37.61928199],[127.05515353,37.61937804],[127.05510909,37.61940174],[127.0550888,37.61941286],[127.05502706,37.61944672],[127.05488836,37.6195249],[127.05485586,37.61954331],[127.05481713,37.61956526],[127.05470523,37.61962623],[127.05454294,37.61971404],[127.05451864,37.61972741],[127.05442485,37.61977903],[127.05438928,37.61980935],[127.05428977,37.61989788],[127.05427359,37.61991227],[127.05423518,37.61994704],[127.05422597,37.61995538],[127.05422478,37.61995646],[127.05421118,37.61996876],[127.05420234,37.61997676],[127.05413047,37.62004036],[127.05407997,37.62008536],[127.05403446,37.62013314],[127.05396104,37.62021215],[127.05388467,37.62029396],[127.05377733,37.62040961],[127.05370934,37.62048447],[127.05365299,37.62054497],[127.05365129,37.62054732],[127.05351799,37.62073145],[127.05349567,37.62075559],[127.05343157,37.62082482],[127.05339033,37.62086959],[127.05338971,37.62087027],[127.05335991,37.62090262],[127.05330864,37.62095804],[127.05325945,37.62101194],[127.05325146,37.62102052],[127.05321432,37.62106043],[127.05315949,37.62111953],[127.0530824,37.62120239],[127.05298052,37.62131172],[127.05292336,37.62137386],[127.05288401,37.62141618],[127.05283376,37.62147075],[127.05281616,37.62148986],[127.05276201,37.62154672],[127.05273324,37.62157693],[127.05270637,37.62160592],[127.05261964,37.62168284],[127.0525842,37.62171335],[127.05251779,37.62177195],[127.05243804,37.62184124],[127.05233334,37.62193204],[127.05225611,37.62199925],[127.05225596,37.62199938],[127.05224671,37.62200743],[127.05222386,37.62202741],[127.0521486,37.62209319],[127.05209235,37.62214236],[127.05207407,37.62215845],[127.05209975,37.62217106],[127.05210007,37.62217121],[127.05210575,37.622174],[127.05220571,37.62222264],[127.05224034,37.6222393],[127.0521998,37.62226564],[127.05210343,37.62232705],[127.05200023,37.62239332],[127.05195334,37.62242277],[127.05188693,37.62246677],[127.05176068,37.6225696],[127.05172167,37.62261467],[127.0517015,37.62263798],[127.05165039,37.62269703],[127.05158003,37.62276357],[127.05150325,37.62283564],[127.05143307,37.62290263],[127.05139675,37.62293765],[127.05139299,37.62294127],[127.05138002,37.62295378],[127.05137977,37.62295402],[127.05130705,37.62302511],[127.05127596,37.62305593],[127.05126674,37.62306396],[127.05125586,37.62307228],[127.05117038,37.6231286],[127.05116327,37.62313337],[127.05112733,37.62315749],[127.05111771,37.62316388],[127.05107449,37.62319263],[127.05102714,37.62322458],[127.05096943,37.6232623],[127.05088687,37.62331617],[127.05078468,37.6233834],[127.05069785,37.62344045],[127.05068768,37.62344712],[127.05061468,37.62349503],[127.05057769,37.62351892],[127.05052358,37.62355387],[127.05051699,37.62355925],[127.05050652,37.62357073],[127.05044599,37.62363814],[127.05038684,37.62370419],[127.05032447,37.62377312],[127.05032314,37.62377464],[127.05029273,37.62380947],[127.05024109,37.62386643],[127.0502365,37.62387108],[127.05018357,37.62391352],[127.05009365,37.62398738],[127.05007883,37.62399927],[127.04998212,37.62407679],[127.04986617,37.62417147],[127.04978637,37.62423648],[127.04973988,37.62427413],[127.04998616,37.62443089],[127.0499862,37.62443092],[127.0500092,37.62444556],[127.0502271,37.62458425],[127.05022725,37.62458434],[127.05022729,37.62458437],[127.05040814,37.62469948],[127.05076863,37.62492893],[127.05076866,37.62492895],[127.05077201,37.62493109],[127.05082805,37.62496676],[127.05082821,37.62496686],[127.05082826,37.62496689],[127.05086098,37.62498771],[127.05106305,37.62511632],[127.05119733,37.6252018],[127.05121874,37.62521542],[127.0514697,37.62537515],[127.05154491,37.62542301],[127.05158551,37.62544886],[127.05162992,37.62547712],[127.05200145,37.6257136],[127.05200619,37.62571662],[127.05203503,37.62573497],[127.05204089,37.6257387],[127.05204187,37.62573933],[127.05204218,37.62573952],[127.05212924,37.62579493],[127.05283411,37.62624356],[127.05285588,37.62625741],[127.05288798,37.62627784],[127.05329057,37.62653406],[127.05332151,37.62655375],[127.05342297,37.62661832],[127.05343007,37.62662284],[127.05351044,37.62667399],[127.05353977,37.62669266],[127.05390386,37.62692438],[127.05396803,37.62696753],[127.05397996,37.62697555],[127.05398285,37.62697749],[127.05410878,37.62706217],[127.05410883,37.6270622],[127.05450675,37.62732975],[127.05453076,37.6273459],[127.0545485,37.62735782],[127.05456142,37.62736651],[127.05463355,37.62741501],[127.05490007,37.62759421],[127.05490934,37.62760044],[127.05498065,37.62764838],[127.05498647,37.62765229],[127.05500469,37.62766454],[127.05508481,37.62771841],[127.05520053,37.62779622],[127.0554516,37.62796503],[127.05549924,37.62799707],[127.055637,37.62806488],[127.05566694,37.62807962],[127.05566793,37.62808011],[127.05566827,37.62808027],[127.0557205,37.62810599],[127.05578001,37.62813528],[127.05579196,37.62814116],[127.05587227,37.6281807],[127.0564502,37.62854726],[127.05651508,37.62858841],[127.05668519,37.6286963],[127.05670521,37.628709],[127.05705861,37.62893314],[127.05704431,37.62894558],[127.05725147,37.62907574],[127.05727891,37.62909298],[127.05730668,37.62911043],[127.05755301,37.62926519],[127.0575536,37.62926556],[127.05765954,37.62933212],[127.05766402,37.62933493],[127.05769772,37.62935611],[127.05772214,37.62937146],[127.05778633,37.62941179],[127.05779183,37.62941525],[127.05779239,37.6294156],[127.05779254,37.62941569],[127.05779271,37.6294158],[127.0578963,37.62948088],[127.05792833,37.62950101],[127.05794882,37.62951388],[127.05810353,37.62961082],[127.05814522,37.62963694],[127.05817965,37.62965851],[127.05820439,37.62967401],[127.05820513,37.62967447],[127.05820571,37.62967484],[127.05838663,37.62978818],[127.05845689,37.6298322],[127.05845696,37.62983225],[127.05845719,37.62983239],[127.05856196,37.62989803],[127.05858915,37.62991507],[127.05860996,37.62992811],[127.05890878,37.63011532],[127.05890895,37.63011542],[127.058909,37.63011546],[127.05904299,37.6301994],[127.05904432,37.63019489],[127.05905482,37.63015935],[127.0590857,37.63005478],[127.05914133,37.62986985],[127.05915162,37.62983561],[127.05915271,37.62983198],[127.05915614,37.62982055],[127.05915988,37.6298081],[127.05917699,37.62975912],[127.05921781,37.62964223],[127.05929209,37.62942958],[127.05929513,37.62942086],[127.05930707,37.62938669],[127.05931254,37.62937101],[127.059314,37.62936731],[127.0593615,37.62924685],[127.05936164,37.6292465],[127.05936332,37.62924225],[127.05938267,37.62919319],[127.05938531,37.62918649],[127.0594433,37.62903946],[127.05944353,37.62903888],[127.05944633,37.62903176],[127.05945347,37.62901365],[127.05947181,37.62896715],[127.05951938,37.62884654],[127.05952967,37.62882044],[127.05954711,37.62877624],[127.05954749,37.62877527],[127.05959474,37.62865544],[127.05962559,37.62857723],[127.05972704,37.62835143],[127.05981056,37.62816555],[127.05982552,37.62813225],[127.05982883,37.62812489],[127.05984769,37.6280809],[127.05987538,37.62801634],[127.05991205,37.62793083],[127.05992182,37.62790829],[127.05993818,37.62787053],[127.05994304,37.62785992],[127.05985697,37.6278306],[127.0599288,37.62766653],[127.05993825,37.62764418],[127.05998891,37.62752445],[127.06008789,37.62729795],[127.06017214,37.62710519],[127.06023033,37.62697204],[127.06030845,37.6267751],[127.06122872,37.62486883],[127.0612394,37.62484669],[127.06194188,37.62339149],[127.06200474,37.62326127],[127.06230653,37.6233503],[127.06241603,37.62308552],[127.06213143,37.62299881],[127.06238904,37.62246515],[127.06272488,37.62176939],[127.06314088,37.62090757],[127.06360202,37.6199522],[127.06399797,37.61913186],[127.06411991,37.61887921],[127.06412407,37.6188706],[127.06421368,37.61869397],[127.06422766,37.61866561],[127.06430446,37.61848546],[127.06440863,37.61825413],[127.06454633,37.61794325],[127.06461322,37.61779034],[127.064671,37.61767578],[127.06476725,37.61748409],[127.06484692,37.61728683],[127.06488888,37.61720966],[127.06492878,37.61713628],[127.06493354,37.61712857],[127.0649538,37.61712244],[127.06495548,37.61712193],[127.06495656,37.61712157],[127.06504487,37.61708322],[127.06504843,37.61708168],[127.06506176,37.61707589],[127.06510216,37.61698501],[127.06511117,37.61696006],[127.06514151,37.61687604],[127.06514958,37.6168537],[127.06515891,37.61683277],[127.06517338,37.61680036],[127.06519277,37.61676155],[127.06520894,37.61676148],[127.06521877,37.61676144],[127.06522334,37.61675111],[127.0652663,37.61665383],[127.06528179,37.61661877],[127.06528365,37.61661456],[127.06528367,37.61661452],[127.06528989,37.61660043],[127.06539787,37.61635598],[127.06541105,37.61632613],[127.06541976,37.61630642],[127.06545604,37.61622429],[127.06548442,37.61616052],[127.06557113,37.61596571],[127.06565131,37.61578558],[127.06575854,37.61554465],[127.06576211,37.61553663],[127.065765,37.61553015],[127.06576519,37.61552973],[127.06584765,37.61534445],[127.06595931,37.61509357],[127.06596365,37.61509452],[127.06596021,37.61508975],[127.06577938,37.61504165],[127.06580843,37.61497315]]]]},"geometry_name":"ag_geom","properties":{"base_date":"20240630","adm_cd":"11110510","adm_nm":"월계1동"},"bbox":[127.04973988,37.61426899,127.06596365,37.6301994]}]}