{"type":"FeatureCollection","features":[{"type":"Feature","geometry":{"type":"MultiPolygon","coordinates":[[[[127.0557259205964,37.617876750654446],[127.05544867156006,37.6181201604578],[127.05529616288406,37.618254061706274],[127.05492088256753,37.61858353149566],[127.05466380211308,37.61839825277782],[127.05429955508755,37.618718030074895],[127.05418572548542,37.61882147744994],[127.05407641712625,37.61892796801404],[127.05397175452921,37.6190373845968],[127.0538718735241,37.61914958299327],[127.0537768873084,37.619264446037896],[127.0537489579848,37.61930088504016],[127.05390792371114,37.619403174964354],[127.05407140003135,37.61950835481103],[127.0545911888909,37.61943799890071],[127.05474526688782,37.61937120290231],[127.05487679971998,37.61931420154471],[127.0548990968778,37.61933813952081],[127.0550383328713,37.61926678188036],[127.05509371089188,37.619236267576404],[127.0552364094884,37.61914492438316],[127.05529157887302,37.619108049158854],[127.05557691225091,37.61891727134086],[127.0555691144133,37.61891041845106],[127.05621458410687,37.61844311584289],[127.05632637945497,37.61831963865216],[127.05625478545831,37.618261225269784],[127.0557825534876,37.61787592275582],[127.0557259205964,37.617876750654446]]]]},"properties":{"present_sn":"11000UQ155PS202106140002","lclas_cl":"UQV300","mlsfc_cl":"UQV320","sclas_cl":"","atrb_se":"UQV320","wtnnc_sn":"11000URZ202106090003","ntfc_sn":"11290NTC202106090001","dgm_nm":"초등학교(국민학교)","dgm_ar":"17427","dgm_lt":"625","signgu_se":"11000","excut_se":"EMA0009","sig_nam":"11","lcl_nam":"학교","mls_nam":"초등학교","scl_nam":"미분류","atr_nam":"초등학교","pmi_nam":"","exc_nam":"기타"},"id":"LT_C_UPISUQ155.10331"},{"type":"Feature","geometry":{"type":"MultiPolygon","coordinates":[[[[127.07445362416763,37.61962136720506],[127.07449800780596,37.6194870036055],[127.07462364927216,37.61951323446787],[127.07479687380103,37.619549436541725],[127.07509433880186,37.61864935228171],[127.07460174805256,37.618546315897696],[127.07443668290385,37.618511820351976],[127.07422573505391,37.61846771236044],[127.07400447798942,37.61842144797066],[127.07396709625002,37.61853472416849],[127.07393654708895,37.61862734568829],[127.07393626470525,37.61862815674397],[127.0738000476357,37.6190251401405],[127.07376978012375,37.61911660818218],[127.07363190407527,37.619087771042054],[127.07349490858506,37.61950230562824],[127.07352337673176,37.619541210611345],[127.07405947692884,37.61965332464166],[127.07422454442845,37.61968782070588],[127.07441827518328,37.61972830837502],[127.07445362416763,37.61962136720506]]]]},"properties":{"present_sn":"11000UQ155PS201912151410","lclas_cl":"UQV300","mlsfc_cl":"UQV320","sclas_cl":"","atrb_se":"UQV320","wtnnc_sn":"11000URZ197709263441","ntfc_sn":"11000NTC197709262190","dgm_nm":"공릉초등학교","dgm_ar":"12949","dgm_lt":"484","signgu_se":"11000","excut_se":"EMA0009","sig_nam":"11","lcl_nam":"학교","mls_nam":"초등학교","scl_nam":"미분류","atr_nam":"초등학교","pmi_nam":"","exc_nam":"기타"},"id":"LT_C_UPISUQ155.10333"},{"type":"Feature","geometry":{"type":"MultiPolygon","coordinates":[[[[127.05921579921579,37.633542722625606],[127.05938299264228,37.63365823626038],[127.06006435374573,37.63412902164917],[127.06038446353513,37.63377531857267],[127.06074356840054,37.63345457084493],[127.05982363850397,37.632861644686216],[127.05921709747793,37.633463526006],[127.0592146229853,37.633486682356065],[127.05921579921579,37.633542722625606]]]]},"properties":{"present_sn":"11000UQ155PS201912151273","lclas_cl":"UQV300","mlsfc_cl":"UQV320","sclas_cl":"","atrb_se":"UQV320","wtnnc_sn":"11000URZ199701094837","ntfc_sn":"11000NTC199701096632","dgm_nm":"연지초등학교","dgm_ar":"9701","dgm_lt":"394","signgu_se":"11000","excut_se":"EMA0009","sig_nam":"11","lcl_nam":"학교","mls_nam":"초등학교","scl_nam":"미분류","atr_nam":"초등학교","pmi_nam":"","exc_nam":"기타"},"id":"LT_C_UPISUQ155.10350"},{"type":"Feature","geometry":{"type":"MultiPolygon","coordinates":[[[[127.04173120488576,37.632700191569285],[127.04178406900363,37.63266420648548],[127.04182077948836,37.632693908220986],[127.04184583874972,37.632714189693225],[127.04184561299836,37.63271572143365],[127.0419706328204,37.63262015691374],[127.04200417535611,37.63259476484898],[127.04214083661213,37.63249132160092],[127.04232047047523,37.6322058747048],[127.042317496256,37.632153348688306],[127.04224461027071,37.63207751147713],[127.04212479426181,37.6319488029399],[127.04182203276929,37.63163707806297],[127.04177994612883,37.631636714018605],[127.04176176334158,37.63163655804466],[127.04176046091993,37.63163727927164],[127.04137560057049,37.631851689612915],[127.04113493431595,37.6319857641778],[127.0411063600921,37.632001676037675],[127.04092424409133,37.63209976345202],[127.04091603319175,37.63210454137958],[127.04078319750202,37.63218150218604],[127.04077599453622,37.63218567611282],[127.04058482119467,37.632296469809475],[127.04043862250991,37.6324062572934],[127.04022980966286,37.63258390882601],[127.0401231532255,37.632703954089365],[127.04009665829831,37.63273261386688],[127.04012682798441,37.632799636791916],[127.04014547385967,37.632840327883294],[127.04027833199494,37.63313029123167],[127.04030194631613,37.63318285555827],[127.04043004839448,37.63327903787082],[127.04076605562943,37.63325624897212],[127.0409217116147,37.63324691702303],[127.0409232636299,37.63324679937761],[127.04095355797736,37.633226337050054],[127.04109166600983,37.63313303956019],[127.04114942229975,37.633092205859114],[127.04163707310697,37.632764265152694],[127.04173120488576,37.632700191569285]]]]},"properties":{"present_sn":"11000UQ155PS201912151269","lclas_cl":"UQV300","mlsfc_cl":"UQV320","sclas_cl":"","atrb_se":"UQV320","wtnnc_sn":"11000URZ198711065167","ntfc_sn":"11000NTC198711069278","dgm_nm":"신화초등학교","dgm_ar":"19163","dgm_lt":"566","signgu_se":"11000","excut_se":"EMA0009","sig_nam":"11","lcl_nam":"학교","mls_nam":"초등학교","scl_nam":"미분류","atr_nam":"초등학교","pmi_nam":"","exc_nam":"기타"},"id":"LT_C_UPISUQ155.10366"},{"type":"Feature","geometry":{"type":"MultiPolygon","coordinates":[[[[127.05042482257512,37.631365875281546],[127.05056937584934,37.631363562837755],[127.05069355548397,37.63138873855508],[127.05082847590771,37.63138120413197],[127.05089088531221,37.631363068367705],[127.05091707913984,37.63134862372883],[127.05091045459059,37.63111312871766],[127.05097077254368,37.63110194033083],[127.05111529221477,37.630708872796],[127.0511101530334,37.63068082748973],[127.05104972585096,37.63062929886858],[127.05104020233699,37.630583902549525],[127.05101829437397,37.63051798713011],[127.05100559160452,37.63041035253151],[127.05095380157955,37.6302971662619],[127.05093769046903,37.63019168641888],[127.05093645383621,37.63018893895156],[127.05092508780606,37.63011522562891],[127.05085125344394,37.62993449314655],[127.05084384390811,37.62991632350164],[127.0507328649448,37.62978888133652],[127.05072046072985,37.6297724526554],[127.0506534241202,37.629608673625825],[127.05057111367448,37.62947423677523],[127.05056120462737,37.629427615237454],[127.05055828673059,37.62934877178866],[127.05054362044014,37.62932042407706],[127.05054300792368,37.62931923503941],[127.05053955146366,37.62924827537776],[127.0505387456784,37.62924604128485],[127.05053466231773,37.62916922551968],[127.05050800646852,37.62904825313934],[127.05045273307582,37.62895855659012],[127.05044612413184,37.62895169387093],[127.05042366730662,37.62892833178586],[127.05043349388671,37.628918489022965],[127.05043488636714,37.62891710093819],[127.05044538085745,37.628906555133874],[127.05041809598049,37.62886257164091],[127.05041729078141,37.62886122050613],[127.05040367057265,37.62883855751852],[127.05039498571374,37.62879275534537],[127.0503852982912,37.62873827715885],[127.05036256197356,37.62861659134014],[127.05034353635516,37.628521807212536],[127.05034319590473,37.628520888354814],[127.05034261617493,37.62851785229541],[127.05031162503181,37.628435975130635],[127.05028940586762,37.6283772765221],[127.05027775156405,37.628346431815906],[127.0502646169545,37.62832123685847],[127.05024382616328,37.6282813320731],[127.05024329348737,37.62828095388185],[127.05020216401807,37.6282515899299],[127.05018479129886,37.62822427941072],[127.05021593178465,37.62811867181811],[127.05023302853195,37.628035576471135],[127.0502338881668,37.6280335669329],[127.05025566664574,37.62799009470927],[127.05018867777365,37.62794763218225],[127.05017392232475,37.627938277094046],[127.05016995581452,37.62793577400748],[127.05002392923666,37.627839744697525],[127.04996343342118,37.62779994627064],[127.0499494144445,37.62779071698887],[127.04990396899146,37.62776085015332],[127.0498345513476,37.62783326325789],[127.04971218532935,37.627940556837714],[127.04952994719045,37.62811517779999],[127.04948519439296,37.62815841596509],[127.04936942160694,37.62826759855969],[127.04934598596046,37.62828926759657],[127.04934501229445,37.62829015095065],[127.04909310962269,37.62852791302156],[127.04909070946177,37.628530175446485],[127.04885441781542,37.628753506030876],[127.04878263895428,37.628821216341734],[127.04870566946359,37.628885595061696],[127.04864796370796,37.628940938229846],[127.04857025653823,37.62902155279533],[127.04847533501716,37.62912810433308],[127.04846819183261,37.62913611687783],[127.04772484387175,37.62961107298572],[127.0476731838405,37.62964421318456],[127.04766944783763,37.62970305757378],[127.04766805841236,37.62972781701553],[127.04766799114326,37.62972895227515],[127.04791914440162,37.62993017750516],[127.04809006524665,37.63006905011412],[127.04800680845725,37.6300819669386],[127.04808476977715,37.63011545261077],[127.0481173806545,37.630090843017314],[127.04832358427365,37.630255532406984],[127.0489348105684,37.630743708951705],[127.04898717552176,37.63078551132905],[127.04904267094784,37.630797544087194],[127.0495029558486,37.6304473906686],[127.04947450322007,37.63038437877321],[127.04951868386645,37.63038300934252],[127.04959594336512,37.63038063534658],[127.04960176360699,37.6304468549112],[127.0495438279983,37.63055076134861],[127.04951792543885,37.63061293941733],[127.04950074750917,37.63067763667289],[127.04950218509363,37.63067584314077],[127.04948386932624,37.63092676413438],[127.04947415710741,37.63099178270012],[127.04947138823023,37.63100213606979],[127.04946588440748,37.631022761707015],[127.04944652155419,37.63109003663677],[127.0494825522651,37.63109849119641],[127.04957160949472,37.63111962796249],[127.04978586805551,37.63117017551758],[127.04975010035425,37.63121821230146],[127.04979374832712,37.63126828886322],[127.04989198352077,37.631291583980435],[127.04995285464746,37.63134678899909],[127.05004987288936,37.631414773021014],[127.05038803554515,37.631413822581685],[127.05042482257512,37.631365875281546]]]]},"properties":{"present_sn":"11000UQ155PS201912151341","lclas_cl":"UQV300","mlsfc_cl":"UQV370","sclas_cl":"UQV374","atrb_se":"UQV374","wtnnc_sn":"11000URZ198906307406","ntfc_sn":"11000NTC198906300766","dgm_nm":"염광여중,고, 염광여상","dgm_ar":"64237","dgm_lt":"1231","signgu_se":"11000","excut_se":"EMA0009","sig_nam":"11","lcl_nam":"학교","mls_nam":"미분류","scl_nam":"미분류","atr_nam":"미분류","pmi_nam":"","exc_nam":"기타"},"id":"LT_C_UPISUQ155.1039"},{"type":"Feature","geometry":{"type":"MultiPolygon","coordinates":[[[[127.07298884620289,37.63136130397707],[127.07302674818375,37.631309835143554],[127.07306816365715,37.63126007602629],[127.0731129795909,37.631212296983726],[127.07316119606858,37.63116658810985],[127.073212586687,37.631123129733794],[127.0732669249579,37.63108201208701],[127.07332409776812,37.63104341543006],[127.07338399191883,37.631007429925624],[127.07344626772571,37.63097423597238],[127.0735108119058,37.630943833635726],[127.07354251958571,37.63093075009816],[127.07355346578956,37.630886595467686],[127.07304491798898,37.630409836648774],[127.07300082280244,37.63044085703289],[127.07294974253094,37.63047679196232],[127.07284887242402,37.630547741976024],[127.07271562395084,37.630641452142264],[127.07259388867642,37.630727073444774],[127.07219592582491,37.630979586470126],[127.07208451192733,37.63104344242869],[127.07208431945038,37.63104355967101],[127.07199645337604,37.631090796427664],[127.07192315986362,37.631130212941216],[127.07191786013843,37.631132450529805],[127.07189054613825,37.63114395429798],[127.0715518723717,37.63128675365085],[127.07149867100789,37.63130917452881],[127.07150111008922,37.63131280402567],[127.07145731739845,37.63132938096402],[127.07145518470097,37.63132629187177],[127.07143986166132,37.6313313554416],[127.07139510844965,37.631350545763574],[127.07138336274448,37.631389204695466],[127.07272446631654,37.63175212806372],[127.0728063439989,37.63172117506822],[127.07289791945843,37.63152479650756],[127.0729243753195,37.631468919837],[127.07295468420782,37.631414392295184],[127.07298884620289,37.63136130397707]]]]},"properties":{"present_sn":"11000UQ155PS201912150925","lclas_cl":"UQV300","mlsfc_cl":"UQV330","sclas_cl":"","atrb_se":"UQV330","wtnnc_sn":"11000URZ199409269360","ntfc_sn":"11000NTC199409264770","dgm_nm":"한천중학교","dgm_ar":"12377","dgm_lt":"505","signgu_se":"11000","excut_se":"EMA0009","sig_nam":"11","lcl_nam":"학교","mls_nam":"중학교","scl_nam":"미분류","atr_nam":"중학교","pmi_nam":"","exc_nam":"기타"},"id":"LT_C_UPISUQ155.1052"},{"type":"Feature","geometry":{"type":"MultiPolygon","coordinates":[[[[127.04801272745641,37.62785372654041],[127.04775891993621,37.62770917406498],[127.04773377406977,37.627713562674],[127.04770717759571,37.627716987797754],[127.04755216220997,37.62786328629138],[127.04741768774122,37.627941471579966],[127.04737856270603,37.62796423651342],[127.04725014768081,37.6280411128352],[127.0471378125397,37.62808968304831],[127.0470364171366,37.62815156540573],[127.04686196441605,37.628230197940844],[127.04686688924,37.628281245522075],[127.04693286347228,37.62831576368806],[127.04716042972508,37.62843299237353],[127.04720321881577,37.628454932675375],[127.04724486344165,37.62847633281765],[127.04727812227725,37.628493060116014],[127.0475268784165,37.62861812739949],[127.04766452640105,37.628687322899744],[127.04789587843167,37.62880426937498],[127.04839619043327,37.62903100126072],[127.04861888206811,37.62886643888104],[127.04875251685463,37.6287675210457],[127.04874033614732,37.62874529876912],[127.048771222078,37.62871717586162],[127.04880787028453,37.628683014077694],[127.04902422595329,37.62848050422641],[127.04901236227934,37.62844028028827],[127.04893626349036,37.62839424383273],[127.04883435961702,37.62833137837885],[127.04854985853969,37.62816554978447],[127.04816596219584,37.62794117816951],[127.04801272745641,37.62785372654041]]]]},"properties":{"present_sn":"11000UQ155PS201912150773","lclas_cl":"UQV300","mlsfc_cl":"UQV330","sclas_cl":"","atrb_se":"UQV330","wtnnc_sn":"11000URZ198305067375","ntfc_sn":"11000NTC198305065284","dgm_nm":"신창중학교","dgm_ar":"13918","dgm_lt":"489","signgu_se":"11000","excut_se":"EMA0009","sig_nam":"11","lcl_nam":"학교","mls_nam":"중학교","scl_nam":"미분류","atr_nam":"중학교","pmi_nam":"","exc_nam":"기타"},"id":"LT_C_UPISUQ155.10611"},{"type":"Feature","geometry":{"type":"MultiPolygon","coordinates":[[[[127.0557259205964,37.617876750654446],[127.05544867156006,37.6181201604578],[127.05529616288406,37.618254061706274],[127.05492088256753,37.61858353149566],[127.05466380211308,37.61839825277782],[127.05429955508755,37.618718030074895],[127.05418572548542,37.61882147744994],[127.05407641712625,37.61892796801404],[127.05397175452921,37.6190373845968],[127.0538718735241,37.61914958299327],[127.0537768873084,37.619264446037896],[127.0537489579848,37.61930088504016],[127.05390792371114,37.619403174964354],[127.05407140003135,37.61950835481103],[127.0545911888909,37.61943799890071],[127.05474526688782,37.61937120290231],[127.05487679971998,37.61931420154471],[127.0548990968778,37.61933813952081],[127.0550383328713,37.61926678188036],[127.05509371089188,37.619236267576404],[127.0552364094884,37.61914492438316],[127.05529157887302,37.619108049158854],[127.05557691225091,37.61891727134086],[127.0555691144133,37.61891041845106],[127.05621458410687,37.61844311584289],[127.05632637945497,37.61831963865216],[127.05625478545831,37.618261225269784],[127.0557825534876,37.61787592275582],[127.0557259205964,37.617876750654446]]]]},"properties":{"present_sn":"11000UQ155PS202106140001","lclas_cl":"UQV300","mlsfc_cl":"UQV330","sclas_cl":"","atrb_se":"UQV330","wtnnc_sn":"11000URZ202106090004","ntfc_sn":"11290NTC202106090001","dgm_nm":"중학교","dgm_ar":"17427","dgm_lt":"625","signgu_se":"11000","excut_se":"EMA0009","sig_nam":"11","lcl_nam":"학교","mls_nam":"중학교","scl_nam":"미분류","atr_nam":"중학교","pmi_nam":"","exc_nam":"기타"},"id":"LT_C_UPISUQ155.10813"},{"type":"Feature","geometry":{"type":"MultiPolygon","coordinates":[[[[127.04940739034213,37.63207590324354],[127.04946907011232,37.63127328652438],[127.04821222312195,37.63121333487557],[127.04821519045977,37.63124829167104],[127.04820818169823,37.63127235057279],[127.0481529871767,37.63141589828604],[127.04812808283,37.63144618100521],[127.04807505599489,37.631432957552754],[127.04801235649461,37.63153218001241],[127.04800061968771,37.631604623311354],[127.04796688425965,37.63164373906344],[127.04796841211927,37.63173230465152],[127.04798318162393,37.631799872225784],[127.04789847606197,37.63185450484586],[127.04787429014158,37.63194749533016],[127.04800639115979,37.631958435300795],[127.04810449407226,37.63195073829545],[127.04811364449623,37.631909199574224],[127.04821195931079,37.6318781670527],[127.04828945651754,37.63189102035496],[127.04829429188689,37.63183353600994],[127.04908141998358,37.632014318053656],[127.04907478746152,37.63209513849553],[127.04908447325757,37.63218343048052],[127.04913546482692,37.632201699778086],[127.04923852084583,37.632144265820855],[127.04930080264398,37.63210216492424],[127.04940467182267,37.63207653503168],[127.04940739034213,37.63207590324354]]]]},"properties":{"present_sn":"11000UQ155PS201912151054","lclas_cl":"UQV300","mlsfc_cl":"UQV340","sclas_cl":"","atrb_se":"UQV340","wtnnc_sn":"11000URZ200001061580","ntfc_sn":"11000NTC200001069321","dgm_nm":"고등학교","dgm_ar":"10108","dgm_lt":"467","signgu_se":"11000","excut_se":"EMA0009","sig_nam":"11","lcl_nam":"학교","mls_nam":"고등학교","scl_nam":"미분류","atr_nam":"고등학교","pmi_nam":"","exc_nam":"기타"},"id":"LT_C_UPISUQ155.1241"},{"type":"Feature","geometry":{"type":"MultiPolygon","coordinates":[[[[127.06962799682985,37.62893209077795],[127.06969933301151,37.628772396125086],[127.06879600484241,37.62851496432196],[127.06879355743833,37.6285646997545],[127.06862116906755,37.62884860626356],[127.06854599473128,37.62889982458724],[127.06830607353082,37.629294949747496],[127.06826218643218,37.62937011621134],[127.06822124560777,37.62944636216716],[127.0681832509039,37.629523507422284],[127.06814820232835,37.629601551979505],[127.06811621309352,37.62968040567968],[127.06808728320809,37.62976006852522],[127.06860014102456,37.62990456538199],[127.06912637192733,37.63005283645503],[127.06931641922462,37.62962836643582],[127.06962799682985,37.62893209077795]]]]},"properties":{"present_sn":"11000UQ155PS201912151306","lclas_cl":"UQV300","mlsfc_cl":"UQV320","sclas_cl":"","atrb_se":"UQV320","wtnnc_sn":"11000URZ199612164202","ntfc_sn":"11000NTC199612166554","dgm_nm":"용원초등학교","dgm_ar":"13983","dgm_lt":"486","signgu_se":"11000","excut_se":"EMA0009","sig_nam":"11","lcl_nam":"학교","mls_nam":"초등학교","scl_nam":"미분류","atr_nam":"초등학교","pmi_nam":"","exc_nam":"기타"},"id":"LT_C_UPISUQ155.1275"},{"type":"Feature","geometry":{"type":"MultiPolygon","coordinates":[[[[127.07539987459099,37.63089190489413],[127.07539273605846,37.6308675288839],[127.07538726851443,37.6308488820507],[127.07537835674638,37.630818470593105],[127.07536454580217,37.63077134904836],[127.07516086131608,37.63079909133002],[127.07512324452463,37.63080485403287],[127.07508882166164,37.63080985791052],[127.07502389269918,37.63081688095694],[127.07396193490591,37.63095923457642],[127.07389431310705,37.63096999771526],[127.07382748743846,37.63098400385023],[127.07376191095196,37.63100116260743],[127.07369769675273,37.63102129372405],[127.07363507149498,37.63104448716161],[127.07357426165946,37.63107065268646],[127.07351560692781,37.63109960989841],[127.07345922049629,37.63113126863381],[127.07340521556182,37.63116553872899],[127.07335393181009,37.63120223978475],[127.0733054825273,37.631241371735655],[127.0732599817798,37.631283745396445],[127.07319999898074,37.63134567907059],[127.07312803899195,37.63144032550105],[127.07306684166434,37.63153550594805],[127.07291672181883,37.631876527111864],[127.07286890463152,37.63198503383302],[127.07258429996875,37.63266155199365],[127.07260374304343,37.63268808310278],[127.07262582564951,37.63267880774128],[127.07262593250616,37.63275529172268],[127.07262594827304,37.63275994977082],[127.07262596404851,37.63276461682876],[127.07262105131727,37.63292344423599],[127.07262147023447,37.632946959515685],[127.07262077196648,37.63295129364176],[127.07261265312172,37.633240963030325],[127.07260881806052,37.63337754462382],[127.07260953678285,37.63344225244288],[127.0726097041607,37.633451460338875],[127.07261791744621,37.63361764981988],[127.07260820194466,37.633622746199855],[127.07261131109036,37.63365175582262],[127.07261301028147,37.63365157460326],[127.07261289501687,37.633673288245646],[127.07261176216815,37.63367335199664],[127.07261320559252,37.6338922797983],[127.07261542909583,37.633895422872165],[127.07261956780856,37.63393485618952],[127.0726290402696,37.63403134523397],[127.0726327683782,37.634198654613016],[127.07263435140406,37.634219222987795],[127.07264301853547,37.63431464935766],[127.07263759635022,37.634355034460896],[127.07253675607386,37.634379809021674],[127.07251459166578,37.63436318129516],[127.07248088902999,37.634365003523925],[127.07215234467546,37.634427431196634],[127.0720993982224,37.63444604104465],[127.07207440985299,37.634462120426534],[127.07205781204917,37.6344735727704],[127.07202952783224,37.63450267324506],[127.07201942243634,37.6345149506035],[127.07199653916814,37.63455280534918],[127.07198629489652,37.63458599448684],[127.0719773005231,37.634623093121554],[127.07197551061665,37.63464721337093],[127.07197902218532,37.6347066848304],[127.07200154494274,37.63477887575363],[127.0720331734542,37.63485985477537],[127.07208013492222,37.63495742964296],[127.07216223361574,37.63508414811468],[127.0722135148648,37.635137049854734],[127.072388392484,37.63534998117527],[127.07245255985504,37.635395487050374],[127.07245985253702,37.63537996782738],[127.07254425685237,37.635380628825686],[127.07265581764949,37.63538130943421],[127.07268617035122,37.63537085780812],[127.0727171458919,37.63536012649523],[127.07280557948842,37.63536851526544],[127.07288996961363,37.63537804164722],[127.07306876605848,37.63539811527137],[127.0731253168531,37.63545157202286],[127.07312842840636,37.635447380587586],[127.07316233546926,37.63544558507923],[127.07324432009524,37.63543936357501],[127.0733502372977,37.63545008385054],[127.07346441636957,37.635463637074075],[127.0735690867034,37.635473628121275],[127.0735766365915,37.63543138566942],[127.0735893688196,37.63544107241529],[127.07360337453235,37.635443784813226],[127.07384395334572,37.63549031726215],[127.0738878515577,37.635498804587954],[127.0739443876689,37.63550142778518],[127.07399642726595,37.63549366544275],[127.0740629663349,37.63548373181734],[127.07412603669059,37.63547183615712],[127.07412757720314,37.63547154689629],[127.07430874596625,37.63543756752025],[127.07436736468696,37.63542657545483],[127.07450628668201,37.6354395627956],[127.07483290993314,37.63548337307973],[127.07486859829872,37.63549576637526],[127.07489779639333,37.63550963229008],[127.0750216506096,37.635591679333594],[127.07513783473584,37.635673361630545],[127.07508991913448,37.63571570143307],[127.0750663818623,37.63576699075254],[127.07507382797435,37.635827189447085],[127.0750775384444,37.635856009413374],[127.07519769113789,37.63594051824365],[127.07517392816948,37.63600418715793],[127.075170911105,37.63601218972364],[127.07519315457806,37.636038952896435],[127.07522273695132,37.63607455007281],[127.07529475279674,37.636160638540055],[127.07531189188755,37.636181125066315],[127.07531269724203,37.63618209761861],[127.0752723661753,37.63622983861447],[127.07526205663292,37.636241593807405],[127.07529623753382,37.63625289773084],[127.0753943543323,37.63629071344616],[127.07544798665386,37.636312078076635],[127.07550052452939,37.63633796627693],[127.07556301569275,37.63636984871984],[127.07560532361056,37.63639624783963],[127.07564317644952,37.63642001888795],[127.07564433496552,37.63638872720487],[127.07566382718369,37.63639422894184],[127.07573616399536,37.636414905952954],[127.07577328463384,37.63643147860826],[127.07545374525176,37.63559490517848],[127.07537937377391,37.63540631402539],[127.07527253054168,37.63513517750648],[127.0752182887405,37.63498904575215],[127.07632462761843,37.63471709214623],[127.07639435439461,37.634689748290256],[127.07644218100714,37.63466172454745],[127.07649654805964,37.63462591217987],[127.07653358572522,37.63453811536625],[127.07653717731138,37.63450452462389],[127.07652762042984,37.634453120895486],[127.07610851569281,37.6333390929175],[127.07608492201896,37.633275787083385],[127.07622622608199,37.633238856709376],[127.07616358215624,37.633063223625506],[127.07608976499807,37.6328504141927],[127.07576294298242,37.63191263878478],[127.07562546354944,37.631497743554725],[127.07551153373171,37.63105566886797],[127.07545343733484,37.63101849486964],[127.07525067576368,37.63094903015385],[127.0752454108213,37.63092902271014],[127.07535864396276,37.6309091574109],[127.07539987459099,37.63089190489413]]]]},"properties":{"present_sn":"11000UQ155PS201912151143","lclas_cl":"UQV300","mlsfc_cl":"UQV340","sclas_cl":"","atrb_se":"UQV340","wtnnc_sn":"11000URZ199708075297","ntfc_sn":"11000NTC199708077161","dgm_nm":"경기기계공","dgm_ar":"149465","dgm_lt":"1877","signgu_se":"11000","excut_se":"EMA0009","sig_nam":"11","lcl_nam":"학교","mls_nam":"고등학교","scl_nam":"미분류","atr_nam":"고등학교","pmi_nam":"","exc_nam":"기타"},"id":"LT_C_UPISUQ155.1286"},{"type":"Feature","geometry":{"type":"MultiPolygon","coordinates":[[[[127.05941253676929,37.61137800691274],[127.0594393612453,37.61135548723079],[127.05951349421325,37.61118843586154],[127.05957032975503,37.61109062438136],[127.05970245846426,37.61086243075796],[127.05971315789543,37.61084366704399],[127.05969965856015,37.6108301769935],[127.05968895590789,37.61081572151269],[127.05970962286787,37.61078368142529],[127.05973518945677,37.610775127510585],[127.05975276365328,37.610771064423],[127.05979319566062,37.610697893761404],[127.05976262529522,37.61066558162735],[127.05979152907426,37.61063761890697],[127.0598134397124,37.610617471145254],[127.0597577540837,37.61060593904072],[127.05961906137607,37.610577509344495],[127.05948013218799,37.610550692358565],[127.05944855041818,37.610542914371905],[127.05937869213383,37.61052562276064],[127.05926742606204,37.61050639624533],[127.05855071126045,37.61036057848068],[127.0585186245316,37.61038839827878],[127.05850069574106,37.61040268749713],[127.05845556798099,37.61048303180014],[127.05841270082819,37.610557581682514],[127.05837296571181,37.61062547178465],[127.05832232885861,37.610714693357416],[127.05830516485476,37.61075188513249],[127.05827683386738,37.61080411065048],[127.05823134699484,37.61085961496969],[127.0582096712927,37.61092136064897],[127.05821268865677,37.61097237278268],[127.05825469922233,37.61103691694211],[127.05834459576491,37.61111761967025],[127.05838988247898,37.61112638242827],[127.05845901851981,37.61111693383583],[127.05853090502096,37.6110756341725],[127.05856700553602,37.61106815660028],[127.05866602541685,37.61108241628534],[127.05874827479515,37.61111508206588],[127.05894806181017,37.61116206131225],[127.05900200085163,37.611199488860855],[127.05900955597194,37.611259499567936],[127.05904549952629,37.611312865215616],[127.05912120549985,37.61137805936047],[127.05914869783417,37.611369639780946],[127.05941253676929,37.61137800691274]]]]},"properties":{"present_sn":"11000UQ155PS201912151538","lclas_cl":"UQV300","mlsfc_cl":"UQV320","sclas_cl":"","atrb_se":"UQV320","wtnnc_sn":"11000URZ199210065377","ntfc_sn":"11000NTC199210063325","dgm_nm":"석관초등학교","dgm_ar":"9906","dgm_lt":"420","signgu_se":"11000","excut_se":"EMA0009","sig_nam":"11","lcl_nam":"학교","mls_nam":"초등학교","scl_nam":"미분류","atr_nam":"초등학교","pmi_nam":"","exc_nam":"기타"},"id":"LT_C_UPISUQ155.1432"},{"type":"Feature","geometry":{"type":"MultiPolygon","coordinates":[[[[127.0563938977396,37.63100216529006],[127.05638223237821,37.63100650442124],[127.05636813167207,37.631011286162824],[127.05631742749154,37.63103086095535],[127.05622639312536,37.63106589720341],[127.0560850386578,37.6311192915746],[127.05601529623954,37.63114636217092],[127.05599903407409,37.63115439739915],[127.05589790822054,37.63119314107376],[127.05569122694712,37.631271017616584],[127.05546690058894,37.6313565421628],[127.05539079183504,37.63138481360087],[127.0554203634152,37.631436786559185],[127.05533094483813,37.63146723539544],[127.05528035176006,37.63148458427332],[127.05527413437994,37.631487515285976],[127.05528060022937,37.63149925209068],[127.05522175175463,37.631521199694674],[127.0552380802145,37.63154208595466],[127.05528890261152,37.631607104447305],[127.05536090767531,37.63170039496937],[127.05538067244697,37.63172628007172],[127.05541410855503,37.631764331146805],[127.05555163657424,37.63200962271223],[127.05563032656826,37.63215004919396],[127.05565603116155,37.63219607740185],[127.05572231274728,37.63231585908462],[127.05573703664787,37.632342016733325],[127.05566708829582,37.632368060097825],[127.05584598440959,37.63266582330348],[127.05585978917112,37.63268977396149],[127.0558361511498,37.63269731702357],[127.05592393479048,37.632862272746195],[127.05602300624253,37.633047864598296],[127.05601946909174,37.633122007735345],[127.05602099969218,37.63312362878934],[127.05615670349829,37.63311484456349],[127.05617088299287,37.63313974103687],[127.05618936241125,37.63314219214748],[127.05627035208404,37.63315565125172],[127.05633096382641,37.63315769536312],[127.05638987741234,37.63316136199394],[127.0563921276082,37.63314013389937],[127.05640066124064,37.63308243128153],[127.0563920422246,37.63305482030527],[127.05638337158702,37.6330186230291],[127.05637131904055,37.632989842375586],[127.05636475939811,37.63297421345104],[127.05641263647537,37.63291364544638],[127.05642530443434,37.632885781303145],[127.05644809738108,37.63283830715747],[127.05651799353984,37.6327565828954],[127.0565246340937,37.632728262050954],[127.05653745424178,37.63269179348068],[127.05659759137176,37.632649914982146],[127.05662663879782,37.632649946469336],[127.05685068289989,37.63247059198111],[127.05685600204278,37.63246324651304],[127.0568927924593,37.63237896074595],[127.05691680717027,37.6323144664504],[127.05693329194027,37.63227035581728],[127.05695092835457,37.63222101896567],[127.05688375877928,37.63208266021291],[127.05684682918547,37.63200958115255],[127.05679891239154,37.631908198483984],[127.0567380553261,37.631787585959565],[127.05670931615704,37.63172903580258],[127.05667105824578,37.63165163260714],[127.05661957070457,37.631546656623904],[127.05661917200274,37.63154368358095],[127.05661824139425,37.63154144958875],[127.05660748232418,37.63151517306838],[127.05656015989977,37.631404708152886],[127.05654563351645,37.631370009233976],[127.05653675814887,37.63134791236846],[127.05650193892373,37.63126287622128],[127.05647924116809,37.63120815234673],[127.0564224975909,37.63107224812213],[127.0563938977396,37.63100216529006]]]]},"properties":{"present_sn":"11000UQ155PS201912151811","lclas_cl":"UQV300","mlsfc_cl":"UQV340","sclas_cl":"","atrb_se":"UQV340","wtnnc_sn":"11000URZ199903087019","ntfc_sn":"11000NTC199903088595","dgm_nm":"고등학교","dgm_ar":"19887","dgm_lt":"629","signgu_se":"11000","excut_se":"EMA0009","sig_nam":"11","lcl_nam":"학교","mls_nam":"고등학교","scl_nam":"미분류","atr_nam":"고등학교","pmi_nam":"","exc_nam":"기타"},"id":"LT_C_UPISUQ155.1461"},{"type":"Feature","geometry":{"type":"MultiPolygon","coordinates":[[[[127.07509295594892,37.62977482909485],[127.07426145534791,37.62955415431526],[127.07416341792444,37.629623121563434],[127.07401845577587,37.62972508438016],[127.07382677231739,37.62985992533909],[127.07359517081969,37.63002280179973],[127.0733032618738,37.6302281325787],[127.07393982701737,37.63082500234264],[127.07541926732631,37.6306267707989],[127.0754183543905,37.63062005908018],[127.07541555883405,37.630599815842025],[127.07541515940655,37.63059686088243],[127.07547626796423,37.630473055169126],[127.0754985970967,37.63042778501688],[127.07545771386931,37.63041806205206],[127.07544568006536,37.63041520447959],[127.07556331259377,37.630000410255256],[127.0755201399074,37.62998935529934],[127.0755575067656,37.62985769887361],[127.07545293204998,37.6298450606403],[127.07509295594892,37.62977482909485]]]]},"properties":{"present_sn":"11000UQ155PS201912150991","lclas_cl":"UQV300","mlsfc_cl":"UQV340","sclas_cl":"","atrb_se":"UQV340","wtnnc_sn":"11000URZ199206095477","ntfc_sn":"11000NTC199206093114","dgm_nm":"위례정보고등학교","dgm_ar":"18772","dgm_lt":"546","signgu_se":"11000","excut_se":"EMA0009","sig_nam":"11","lcl_nam":"학교","mls_nam":"고등학교","scl_nam":"미분류","atr_nam":"고등학교","pmi_nam":"","exc_nam":"기타"},"id":"LT_C_UPISUQ155.1477"},{"type":"Feature","geometry":{"type":"MultiPolygon","coordinates":[[[[127.05573277380769,37.621294084947955],[127.05596953400052,37.62124571044205],[127.05596965861952,37.621245737413936],[127.05605667762886,37.621265879186375],[127.05633826261571,37.621330051671436],[127.0566791097194,37.62137558155062],[127.05667912100668,37.62137552748655],[127.05678481216316,37.62104980976731],[127.05672438323411,37.62091406034234],[127.05691097051624,37.62035763565762],[127.0565859063568,37.61959000840832],[127.05658561133104,37.61958929677147],[127.05658540710036,37.61958882835699],[127.05663341908358,37.619554082161386],[127.05665942294712,37.61953492418159],[127.05665960419155,37.61953494211651],[127.0565927666067,37.6194772385038],[127.05654431345415,37.619435879076256],[127.05656984131599,37.61941637896522],[127.05659157016576,37.619390808013634],[127.05663615956126,37.61933837716766],[127.05667948024052,37.61928589283854],[127.0566662640357,37.61927367271089],[127.05664708761503,37.619258383022846],[127.05660671624283,37.61922459708919],[127.05656357913263,37.61918808246087],[127.056555872907,37.61918274324099],[127.05652967532055,37.61916943896467],[127.05647783577,37.619143613988726],[127.05647311123145,37.61914194937499],[127.05646794355225,37.619138392908496],[127.0564590834547,37.61913503637646],[127.05639705746037,37.61919675536516],[127.05633582352586,37.61925749188407],[127.05632900762625,37.61926144134397],[127.05631814196369,37.61927257349793],[127.0560558578587,37.6195232125934],[127.05600688567463,37.61954632734103],[127.05578503277667,37.619650997343285],[127.05570057870408,37.61968193977301],[127.05566262113209,37.61969633683986],[127.05555090435932,37.619744923852146],[127.05543572117523,37.61979322402835],[127.05538841060171,37.619812058102646],[127.05527410899566,37.61985797012033],[127.0552184721477,37.61987562763437],[127.05501627342024,37.619985711142874],[127.05501941519303,37.61999155708083],[127.05505448524987,37.62005698838622],[127.05506066552735,37.6200668152775],[127.05510300569415,37.62014535253216],[127.05512662207721,37.62019198555594],[127.05512684266547,37.620231024930945],[127.05513300158078,37.62024261774916],[127.05518323745817,37.620321944247976],[127.05521977020021,37.620326036099954],[127.05527940732999,37.6204363069496],[127.05529267795845,37.62046121300706],[127.05536302417049,37.62059377819204],[127.05529179617199,37.62062089413341],[127.05533144547638,37.62070558621928],[127.05537499309524,37.62071409863676],[127.05537956959284,37.620730269142655],[127.05540636503899,37.620786748368154],[127.05538693444883,37.62081184953696],[127.05532211257932,37.620895129675226],[127.05521311169163,37.620974357455296],[127.0551152505904,37.621045327096965],[127.05505957251711,37.62108576132943],[127.05504719263543,37.62111838242618],[127.0550251464599,37.62117677593606],[127.05502554821905,37.6211841818105],[127.05503703972562,37.62128698744071],[127.05504359267188,37.621342502862795],[127.05504386620441,37.62134484528696],[127.0550482688257,37.62138712628593],[127.05508209137419,37.621402130277794],[127.05518225525812,37.62144545795505],[127.05525437540341,37.62147639182382],[127.05527377781566,37.62144331701879],[127.05531149730412,37.62138012310797],[127.05548079169144,37.6213454662035],[127.05573277380769,37.621294084947955]]]]},"properties":{"present_sn":"11000UQ155PS201912151706","lclas_cl":"UQV300","mlsfc_cl":"UQV370","sclas_cl":"UQV374","atrb_se":"UQV374","wtnnc_sn":"11000URZ201604219355","ntfc_sn":"11000NTC201604217754","dgm_nm":"학교","dgm_ar":"27630","dgm_lt":"780","signgu_se":"11000","excut_se":"EMA0009","sig_nam":"11","lcl_nam":"학교","mls_nam":"미분류","scl_nam":"미분류","atr_nam":"미분류","pmi_nam":"","exc_nam":"기타"},"id":"LT_C_UPISUQ155.1535"},{"type":"Feature","geometry":{"type":"MultiPolygon","coordinates":[[[[127.04599466622135,37.610724929039016],[127.04617752430119,37.61067819814499],[127.04634975810833,37.610687025539306],[127.04634948063268,37.610620983680874],[127.04633782613945,37.61058248014588],[127.04639303389861,37.61057498101962],[127.04668206741663,37.610526100629045],[127.04672857715727,37.61051877586035],[127.04681121194649,37.61050559885383],[127.04685396172309,37.61049852775342],[127.04698178165786,37.610478999360595],[127.04707329331552,37.610462061656754],[127.0470858738957,37.610477130225824],[127.04711717167706,37.61046711724036],[127.04715445895964,37.61045429086764],[127.04727412265376,37.6104135381802],[127.04736575051147,37.61038318458525],[127.04740669910737,37.610394070551635],[127.04743007218586,37.61040780143452],[127.0473114111008,37.610236435742145],[127.04720592772163,37.61012975532217],[127.04715749831878,37.610108826230885],[127.04706929506948,37.6100901018624],[127.04689506754704,37.609892016031395],[127.04683631274739,37.60982036549603],[127.04685529933403,37.60981008701075],[127.0468172589071,37.609738428506205],[127.04674001261029,37.6096339442254],[127.0466624144607,37.60950909783472],[127.04661704317246,37.609431387466856],[127.04659644208321,37.609374831689145],[127.04655975472375,37.609273692449],[127.04646800678455,37.60912159661594],[127.0464594243197,37.60910637328822],[127.04645069332797,37.60908898765957],[127.04644343729234,37.60907601628067],[127.04623133616103,37.609076502263896],[127.04618327409185,37.609043265215334],[127.04616629369293,37.60905604756493],[127.04615715481538,37.609114056243655],[127.04608223371439,37.6092595931479],[127.04604609972496,37.60934454235672],[127.04604659887517,37.60934593869047],[127.04604655358966,37.60934596573701],[127.04598343623368,37.60938255138062],[127.0459856303348,37.60939648874501],[127.04585939128795,37.60942454776751],[127.04568444550412,37.60945936423597],[127.04554243145378,37.609547677483974],[127.04544095720813,37.60970458525406],[127.04551673279575,37.6100454795694],[127.04556597506405,37.61029336635803],[127.0456161815673,37.610754361974294],[127.04599466622135,37.610724929039016]]]]},"properties":{"present_sn":"11000UQ155PS201912151777","lclas_cl":"UQV300","mlsfc_cl":"UQV320","sclas_cl":"","atrb_se":"UQV320","wtnnc_sn":"11000URZ200406210448","ntfc_sn":"11000NTC200406216453","dgm_nm":"월곡초등학교","dgm_ar":"18699","dgm_lt":"606","signgu_se":"11000","excut_se":"EMA0009","sig_nam":"11","lcl_nam":"학교","mls_nam":"초등학교","scl_nam":"미분류","atr_nam":"초등학교","pmi_nam":"","exc_nam":"기타"},"id":"LT_C_UPISUQ155.1780"},{"type":"Feature","geometry":{"type":"MultiPolygon","coordinates":[[[[127.04715261246042,37.62151936474363],[127.04706074600776,37.62145964723029],[127.04702460227368,37.62146210282869],[127.04697215645746,37.621516803522205],[127.04694398100285,37.62154651067453],[127.04649271172525,37.62203089722228],[127.04650833380032,37.622090094664685],[127.04688050992615,37.62241544923571],[127.0470132289389,37.622501856183426],[127.04710160325752,37.6225541419872],[127.04760405293706,37.62204000984877],[127.04737398155505,37.62188924838257],[127.04750329747807,37.621747600040685],[127.04742764610367,37.621698138659106],[127.047352538931,37.62164931671308],[127.04731171049787,37.621622780679736],[127.04728110335249,37.62160288089236],[127.04723560628102,37.62157331033986],[127.04715261246042,37.62151936474363]]]]},"properties":{"present_sn":"11000UQ155PS201912151286","lclas_cl":"UQV300","mlsfc_cl":"UQV320","sclas_cl":"","atrb_se":"UQV320","wtnnc_sn":"11000URZ200209056693","ntfc_sn":"11000NTC200209053076","dgm_nm":"학교","dgm_ar":"6533","dgm_lt":"330","signgu_se":"11000","excut_se":"EMA0009","sig_nam":"11","lcl_nam":"학교","mls_nam":"초등학교","scl_nam":"미분류","atr_nam":"초등학교","pmi_nam":"","exc_nam":"기타"},"id":"LT_C_UPISUQ155.1859"},{"type":"Feature","geometry":{"type":"MultiPolygon","coordinates":[[[[127.04154109161465,37.61169114129613],[127.04159666017472,37.61165708335391],[127.04167805041251,37.61164226156978],[127.04176859098345,37.61162587791113],[127.04195139543572,37.61159665065278],[127.04211554750934,37.61156974505126],[127.04208316433083,37.611460169787435],[127.04197907381625,37.610924373679744],[127.04112853763003,37.61102565322852],[127.04085043355089,37.611063929838615],[127.04054471035394,37.61108910564484],[127.04066220637938,37.6116793448795],[127.04067246894179,37.611660456900495],[127.04069887340917,37.61179787486479],[127.04071145677642,37.61186344412815],[127.04075277761459,37.61208736937195],[127.0410334712479,37.61205553414912],[127.04106403499686,37.61198261648336],[127.0412137703768,37.61189155806817],[127.04126024810147,37.61186402644937],[127.04140601969651,37.61177430257593],[127.04154109161465,37.61169114129613]]]]},"properties":{"present_sn":"11000UQ155PS201912150825","lclas_cl":"UQV300","mlsfc_cl":"UQV330","sclas_cl":"","atrb_se":"UQV330","wtnnc_sn":"11000URZ198302146859","ntfc_sn":"11000NTC198302145111","dgm_nm":"장위중학교","dgm_ar":"11341","dgm_lt":"456","signgu_se":"11000","excut_se":"EMA0009","sig_nam":"11","lcl_nam":"학교","mls_nam":"중학교","scl_nam":"미분류","atr_nam":"중학교","pmi_nam":"","exc_nam":"기타"},"id":"LT_C_UPISUQ155.1875"},{"type":"Feature","geometry":{"type":"MultiPolygon","coordinates":[[[[127.06404699231564,37.628159977692555],[127.06340882671499,37.627969306557034],[127.06332615410021,37.627997640628664],[127.0630001938492,37.62862831600481],[127.06274932959445,37.629113623582214],[127.0635434276051,37.62935854541194],[127.06357576573235,37.62928491843924],[127.06374141478412,37.62891011409831],[127.0638224996021,37.628742849629425],[127.06392508059064,37.628542958295974],[127.06399679115506,37.62841038634492],[127.06408943172964,37.6282455482033],[127.06404699231564,37.628159977692555]]]]},"properties":{"present_sn":"11000UQ155PS201912151640","lclas_cl":"UQV300","mlsfc_cl":"UQV320","sclas_cl":"","atrb_se":"UQV320","wtnnc_sn":"11000URZ199701094832","ntfc_sn":"11000NTC199701096632","dgm_nm":"녹천초등학교","dgm_ar":"10137","dgm_lt":"420","signgu_se":"11000","excut_se":"EMA0009","sig_nam":"11","lcl_nam":"학교","mls_nam":"초등학교","scl_nam":"미분류","atr_nam":"초등학교","pmi_nam":"","exc_nam":"기타"},"id":"LT_C_UPISUQ155.18847"},{"type":"Feature","geometry":{"type":"MultiPolygon","coordinates":[[[[127.06728149007553,37.63169230856511],[127.06619001202716,37.63149001144198],[127.06614388009454,37.63159328884986],[127.06576611377626,37.6324392435687],[127.06685384461588,37.632746510622894],[127.06730860074528,37.63173184640743],[127.06728149007553,37.63169230856511]]]]},"properties":{"present_sn":"11000UQ155PS201912151761","lclas_cl":"UQV300","mlsfc_cl":"UQV320","sclas_cl":"","atrb_se":"UQV320","wtnnc_sn":"11000URZ200911191499","ntfc_sn":"11000NTC200911194096","dgm_nm":"초등학교(국민학교)","dgm_ar":"11979","dgm_lt":"437","signgu_se":"11000","excut_se":"EMA0009","sig_nam":"11","lcl_nam":"학교","mls_nam":"초등학교","scl_nam":"미분류","atr_nam":"초등학교","pmi_nam":"","exc_nam":"기타"},"id":"LT_C_UPISUQ155.18892"},{"type":"Feature","geometry":{"type":"MultiPolygon","coordinates":[[[[127.05602099969218,37.63312362878934],[127.05601946909174,37.633122007735345],[127.05602300624253,37.633047864598296],[127.05592393479048,37.632862272746195],[127.0558361511498,37.63269731702357],[127.05585978917112,37.63268977396149],[127.05584598440959,37.63266582330348],[127.05566708829582,37.632368060097825],[127.05573703664787,37.632342016733325],[127.05572231274728,37.63231585908462],[127.05565603116155,37.63219607740185],[127.05563032656826,37.63215004919396],[127.05555163657424,37.63200962271223],[127.05541410855503,37.631764331146805],[127.05538067244697,37.63172628007172],[127.05536090767531,37.63170039496937],[127.05528890261152,37.631607104447305],[127.0552380802145,37.63154208595466],[127.05522175175463,37.631521199694674],[127.05528060022937,37.63149925209068],[127.05527413437994,37.631487515285976],[127.05528035176006,37.63148458427332],[127.05533094483813,37.63146723539544],[127.0554203634152,37.631436786559185],[127.05539079183504,37.63138481360087],[127.05546690058894,37.6313565421628],[127.05569122694712,37.631271017616584],[127.05589790822054,37.63119314107376],[127.05599903407409,37.63115439739915],[127.05601529623954,37.63114636217092],[127.0560850386578,37.6311192915746],[127.05622639312536,37.63106589720341],[127.05631742749154,37.63103086095535],[127.05636813167207,37.631011286162824],[127.05638223237821,37.63100650442124],[127.0563938977396,37.63100216529006],[127.05632255021685,37.63083321990661],[127.05624526869481,37.63065139323236],[127.05620067044782,37.6305466931562],[127.05618705316262,37.63051537243675],[127.05615887501521,37.63044817247736],[127.05613368330651,37.6303904944732],[127.05612135633226,37.63029558207065],[127.05611970836955,37.63028831193492],[127.05611709905327,37.63028319558308],[127.05610774391677,37.63027081145371],[127.05604528557149,37.63018795028736],[127.05595014145995,37.630054334015334],[127.05587507400757,37.62995481046387],[127.05581272201783,37.62989285182853],[127.05559626798278,37.62962707237539],[127.05552900946611,37.62951565209682],[127.05539353096275,37.62937245838899],[127.0553062543926,37.629306456451154],[127.05518020505347,37.62919911715474],[127.05507556681104,37.6290918581041],[127.05504547872678,37.629123658291356],[127.05496604856936,37.629209215210125],[127.05487203863339,37.62931075302243],[127.05484199557212,37.629342390960105],[127.0547747226442,37.62941524746086],[127.05467567484114,37.62952214821087],[127.05456789897787,37.629638170705576],[127.05445501620243,37.62975782633525],[127.05432554928254,37.629895148461245],[127.0542236450908,37.630001599612235],[127.05385108861275,37.63039675449851],[127.05378803515471,37.63046363506411],[127.05374216767352,37.63051514630418],[127.05373415328695,37.63052411458867],[127.0537027811898,37.63056821335329],[127.05363716218555,37.6306603854422],[127.05350811590635,37.63080423856045],[127.05322468878974,37.631137995473466],[127.05294702403857,37.63181493189471],[127.05297887666234,37.63184199241215],[127.05342804388341,37.63197554593608],[127.05370382495522,37.63214210531319],[127.05369621892959,37.632249307090575],[127.05367531685305,37.632329944889634],[127.05370033950827,37.63239065977187],[127.05375570677579,37.63250814988719],[127.05375923020256,37.63257308183926],[127.05392913255686,37.63267331242208],[127.05396168337866,37.632693371758144],[127.05433815955217,37.63282699912815],[127.05552816796103,37.63325295656311],[127.05550954520393,37.63314633430669],[127.05569820220256,37.633139310305104],[127.05572651802196,37.633130062273445],[127.05572651586111,37.63314268498016],[127.05602099969218,37.63312362878934]]]]},"properties":{"present_sn":"11000UQ155PS201912152016","lclas_cl":"UQV300","mlsfc_cl":"UQV370","sclas_cl":"UQV371","atrb_se":"UQV371","wtnnc_sn":"11000URZ199903086823","ntfc_sn":"11000NTC199903088595","dgm_nm":"인덕대학","dgm_ar":"74884","dgm_lt":"1290","signgu_se":"11000","excut_se":"EMA0009","sig_nam":"11","lcl_nam":"학교","mls_nam":"미분류","scl_nam":"미분류","atr_nam":"미분류","pmi_nam":"","exc_nam":"기타"},"id":"LT_C_UPISUQ155.19072"},{"type":"Feature","geometry":{"type":"MultiPolygon","coordinates":[[[[127.067129088834,37.60867525871715],[127.06714547227094,37.60834812105504],[127.06715597758057,37.60812386077679],[127.06717195497536,37.607682911241774],[127.06717952697541,37.60740718846493],[127.06709416964777,37.60731691245414],[127.06681938339266,37.607297738735376],[127.06623924655995,37.607261316224445],[127.06613964476844,37.60732950307424],[127.06595924323577,37.60746923592885],[127.06589391306204,37.60757952476926],[127.06584998848506,37.60763866215876],[127.06578630433624,37.60772748864454],[127.06571119570853,37.6078327191836],[127.06567627655697,37.60788122902854],[127.06563760935049,37.60793047069449],[127.0655940911904,37.60798858064499],[127.06560205967081,37.608009785437616],[127.06608795972254,37.608131864974624],[127.06608186413776,37.60822056098524],[127.0660854893244,37.60822184740648],[127.06621117874471,37.60826335890349],[127.06624211025813,37.60827906408238],[127.06634711391979,37.60832666840486],[127.06646450913054,37.60837609480905],[127.06657459063346,37.60841510977515],[127.06663163151066,37.608435963084275],[127.06666361185499,37.60847239016038],[127.06665432293971,37.60850884001016],[127.06663185003374,37.60854373843418],[127.06660402392458,37.6085568630705],[127.06655091148174,37.60858648960652],[127.06647117516363,37.608618338179134],[127.06641778525788,37.60862853062576],[127.06638068207893,37.60861374788737],[127.06627925122014,37.60857279088423],[127.06616746736948,37.60852975819641],[127.06606519709113,37.608486972474886],[127.06603871922974,37.608881058460575],[127.06603039745733,37.60898868530509],[127.06601425475972,37.609167602111704],[127.06608729238775,37.60923342395609],[127.0661303389592,37.60927128668822],[127.0661948783488,37.609318958331365],[127.06619235139233,37.609343511472936],[127.06624293752314,37.60942986988678],[127.06625337076152,37.609445856593275],[127.06627025125091,37.6094784628776],[127.06629724189011,37.609533182715765],[127.06629656281812,37.609559825122346],[127.06629474864302,37.60962269663237],[127.06628564398746,37.609663038586575],[127.0662676954692,37.609731045534446],[127.06623928342158,37.609761271039],[127.06617954536021,37.60979180201707],[127.0660979501877,37.60979741475898],[127.06600760953224,37.609800473434944],[127.06599964506871,37.60988923350597],[127.06598021777639,37.610120724362176],[127.06597815205345,37.6101811543382],[127.06596826430795,37.61046927568224],[127.06595421278477,37.610722792578],[127.0659402562866,37.61095528049752],[127.06601827978517,37.610917216457935],[127.06622920922052,37.61080033377346],[127.06630495833909,37.61075195455018],[127.06645858228886,37.610638481576565],[127.06655811185367,37.610547652864035],[127.06665295346411,37.61044506884191],[127.06670115285972,37.61039059590612],[127.06681784836559,37.61024455433717],[127.06688925924244,37.61014484820326],[127.06696462001155,37.610003487446065],[127.06697178802177,37.609989383106],[127.0669511723979,37.60997278944243],[127.06694510962849,37.60996864828716],[127.06699936598373,37.609847688419435],[127.06704563493284,37.60969773936353],[127.06705604854112,37.60966529823509],[127.06707187136062,37.609589192520566],[127.06707616459607,37.60957730618523],[127.06711375217677,37.60920153080404],[127.06711762481005,37.60907183230309],[127.06711731467125,37.60904108196179],[127.06711730386898,37.60896430028609],[127.0671169389477,37.60893564926268],[127.06712023238595,37.60890731154946],[127.067129088834,37.60867525871715]]]]},"properties":{"present_sn":"11000UQ155PS201912151283","lclas_cl":"UQV300","mlsfc_cl":"UQV370","sclas_cl":"UQV374","atrb_se":"UQV374","wtnnc_sn":"11000URZ198202033881","ntfc_sn":"11000NTC198202034543","dgm_nm":"석관중,고교","dgm_ar":"33348","dgm_lt":"1102","signgu_se":"11000","excut_se":"EMA0009","sig_nam":"11","lcl_nam":"학교","mls_nam":"미분류","scl_nam":"미분류","atr_nam":"미분류","pmi_nam":"","exc_nam":"기타"},"id":"LT_C_UPISUQ155.19118"},{"type":"Feature","geometry":{"type":"MultiPolygon","coordinates":[[[[127.0531187456433,37.6307981476609],[127.05399006278536,37.62987385481705],[127.0539365716292,37.629844596779016],[127.05393718313255,37.629747470992584],[127.05385938100939,37.629621098198406],[127.05331887383186,37.62925806202203],[127.05243257137981,37.629805522100526],[127.05233007379773,37.62984286680107],[127.05228615555474,37.62972981286283],[127.0509871784662,37.62982289506952],[127.05096826075275,37.629824254466556],[127.05095112153691,37.629825495988314],[127.05110754274467,37.63019630025482],[127.05121814353046,37.6305025144144],[127.05125554026682,37.63048698380515],[127.05129030954396,37.63047264358414],[127.05135534867036,37.63066164146398],[127.0514388432446,37.630665390283085],[127.05148112722141,37.630707448092046],[127.05155470404611,37.63078787431199],[127.05156369059321,37.63084292029691],[127.05165183461078,37.63085333423523],[127.05166996392465,37.630858462110105],[127.0518687070642,37.63091522923081],[127.05195731872526,37.63094690583696],[127.052041048998,37.631047302105834],[127.05221707037698,37.631258352928285],[127.0524391647906,37.63133357910991],[127.05256472300002,37.63138587171792],[127.05280517034532,37.63113079052285],[127.0531187456433,37.6307981476609]]]]},"properties":{"present_sn":"11000UQ155PS201912151990","lclas_cl":"UQV300","mlsfc_cl":"UQV370","sclas_cl":"UQV372","atrb_se":"UQV372","wtnnc_sn":"11000URZ198101051694","ntfc_sn":"11000NTC198101054025","dgm_nm":"월계중학교,신계초등학교","dgm_ar":"32576","dgm_lt":"795","signgu_se":"11000","excut_se":"EMA0009","sig_nam":"11","lcl_nam":"학교","mls_nam":"미분류","scl_nam":"미분류","atr_nam":"미분류","pmi_nam":"","exc_nam":"기타"},"id":"LT_C_UPISUQ155.1961"},{"type":"Feature","geometry":{"type":"MultiPolygon","coordinates":[[[[127.05759810259372,37.62027921417338],[127.0577309225729,37.62024758063608],[127.05768366531645,37.620126087927304],[127.05768364264206,37.62012606090868],[127.05765723000682,37.62012874938723],[127.05755180227837,37.62016474860375],[127.05750754667169,37.62017873480197],[127.05746316801736,37.62020992976496],[127.05742289809523,37.62028256785664],[127.05739755966728,37.620328259555464],[127.05759810259372,37.62027921417338]]]]},"properties":{"present_sn":"11000UQ155PS201912151444","lclas_cl":"UQV300","mlsfc_cl":"UQV370","sclas_cl":"UQV374","atrb_se":"UQV374","wtnnc_sn":"11000URZ000000001551","ntfc_sn":"","dgm_nm":"중,고등학교","dgm_ar":"336","dgm_lt":"81","signgu_se":"11000","excut_se":"EMA0009","sig_nam":"11","lcl_nam":"학교","mls_nam":"미분류","scl_nam":"미분류","atr_nam":"미분류","pmi_nam":"","exc_nam":"기타"},"id":"LT_C_UPISUQ155.1985"},{"type":"Feature","geometry":{"type":"MultiPolygon","coordinates":[[[[127.05025313244276,37.61280986678332],[127.05030515415494,37.61263910029817],[127.05037024258375,37.61244626334098],[127.05039319769759,37.612407926084906],[127.05045707712489,37.61220282721448],[127.05052660155303,37.61198823862277],[127.05053996583788,37.611953473204274],[127.05059411490537,37.6117817326234],[127.05067230853376,37.61154152541818],[127.0502276259333,37.61145445871598],[127.04996128837045,37.611399266080056],[127.04957376310601,37.611321777902425],[127.04955471168255,37.61140736089517],[127.0494439221371,37.61138756631854],[127.04938222915986,37.61161450357737],[127.04931421569657,37.61182323451725],[127.0493239537606,37.61185533254699],[127.04932960006002,37.6119178764006],[127.04930241495401,37.611912877952456],[127.04927708796113,37.61190894190445],[127.04924836449027,37.612031036525195],[127.04920963067387,37.61212044757176],[127.04918396944386,37.612160785871566],[127.0492677711044,37.61225222865172],[127.04913624049377,37.612424288170665],[127.04898327897146,37.61261148363752],[127.05004599394455,37.61279465346883],[127.05025313244276,37.61280986678332]]]]},"properties":{"present_sn":"11000UQ155PS202412030001","lclas_cl":"UQV300","mlsfc_cl":"UQV320","sclas_cl":"","atrb_se":"UQV320","wtnnc_sn":"11000URZ202411280003","ntfc_sn":"11000NTC202411280001","dgm_nm":"장위초등학교","dgm_ar":"15983","dgm_lt":"533","signgu_se":"11000","excut_se":"EMA0009","sig_nam":"11","lcl_nam":"학교","mls_nam":"초등학교","scl_nam":"미분류","atr_nam":"초등학교","pmi_nam":"","exc_nam":"기타"},"id":"LT_C_UPISUQ155.2197"},{"type":"Feature","geometry":{"type":"MultiPolygon","coordinates":[[[[127.05131843485209,37.62729190572756],[127.0508068647113,37.626961010636755],[127.05008119175451,37.627663174286624],[127.05007501845424,37.627751112390506],[127.05036344626683,37.62794245142191],[127.05043897247444,37.62806486319494],[127.05043262648655,37.628234430085854],[127.05072860184193,37.62835720057545],[127.05075363473883,37.62835322582619],[127.05154778165445,37.62755867875186],[127.051609472571,37.62748774552239],[127.05154215423651,37.62744434688169],[127.05153908863365,37.62743389682274],[127.05131843485209,37.62729190572756]]]]},"properties":{"present_sn":"11000UQ155PS201912151383","lclas_cl":"UQV300","mlsfc_cl":"UQV320","sclas_cl":"","atrb_se":"UQV320","wtnnc_sn":"11000URZ199401080025","ntfc_sn":"11000NTC199401084283","dgm_nm":"월계초등학교","dgm_ar":"10907","dgm_lt":"423","signgu_se":"11000","excut_se":"EMA0009","sig_nam":"11","lcl_nam":"학교","mls_nam":"초등학교","scl_nam":"미분류","atr_nam":"초등학교","pmi_nam":"","exc_nam":"기타"},"id":"LT_C_UPISUQ155.226"},{"type":"Feature","geometry":{"type":"MultiPolygon","coordinates":[[[[127.05803626679622,37.61914113005045],[127.05817180566916,37.619068202776106],[127.05822612392626,37.619075934130024],[127.05825430991226,37.61905231489568],[127.0582639729739,37.619053941024426],[127.0583472898477,37.61898963399912],[127.05838973395717,37.61894808736433],[127.05842889424906,37.618907875748675],[127.05848355487262,37.61884484381351],[127.05855297943305,37.61877374094298],[127.05856321049491,37.61874792290731],[127.0585947558557,37.61867400923553],[127.05865234126325,37.618585000537195],[127.05872604501563,37.61849658765432],[127.05875561969295,37.61840847543846],[127.05876739111169,37.61839747776632],[127.05884539901903,37.618324217211075],[127.05875177015946,37.61826274370181],[127.05869830523247,37.618214927549936],[127.05854827373624,37.61802556897787],[127.05855338333672,37.61796788573062],[127.05849721162413,37.61794970404547],[127.05848780810692,37.617931779070965],[127.05846054346904,37.61788557192338],[127.05840329103174,37.61778677997799],[127.05827843740205,37.617832033279875],[127.05825177269085,37.61784473190827],[127.05807120439523,37.61793691681117],[127.05807537892053,37.61794523086176],[127.05806544229618,37.61794113616141],[127.05792277613,37.61800780491841],[127.05782357466823,37.61805013530753],[127.0577236676647,37.61807320298396],[127.05770082621098,37.61809431482525],[127.05749155947763,37.61826848370826],[127.05748412504624,37.618353719994616],[127.0575426029746,37.61844138468528],[127.05754688927694,37.618447752582846],[127.0575918723449,37.618513953287625],[127.05770844492078,37.61861560052387],[127.05782280157301,37.61873733155544],[127.05802787946388,37.619089048388126],[127.05803626679622,37.61914113005045]]]]},"properties":{"present_sn":"11000UQ155PS201912152029","lclas_cl":"UQV300","mlsfc_cl":"UQV320","sclas_cl":"","atrb_se":"UQV320","wtnnc_sn":"11000URZ201907034265","ntfc_sn":"11000NTC201907040076","dgm_nm":"학교","dgm_ar":"9906","dgm_lt":"405","signgu_se":"11000","excut_se":"EMA0009","sig_nam":"11","lcl_nam":"학교","mls_nam":"초등학교","scl_nam":"미분류","atr_nam":"초등학교","pmi_nam":"","exc_nam":"기타"},"id":"LT_C_UPISUQ155.238"},{"type":"Feature","geometry":{"type":"MultiPolygon","coordinates":[[[[127.07422060775349,37.626463190859866],[127.0739831340293,37.626364832862805],[127.0738789520532,37.62657674403767],[127.07379415884625,37.626749153322095],[127.07373163769262,37.626876229661704],[127.07357044996417,37.62720410440078],[127.07366583686076,37.62724359910493],[127.07419609328174,37.62746313965365],[127.07472261296506,37.62768109440508],[127.07496127891754,37.62731645502873],[127.07524269812393,37.62688646745721],[127.07509650641657,37.62682592280076],[127.07495167484258,37.62676591770357],[127.07478174174558,37.62669556675379],[127.07463504084785,37.62663484164365],[127.07449814288115,37.62657816469479],[127.07441887131253,37.62654530993115],[127.07436124503427,37.62652139748851],[127.07424502943674,37.62647329380844],[127.07422060775349,37.626463190859866]]]]},"properties":{"present_sn":"11000UQ155PS201912151307","lclas_cl":"UQV300","mlsfc_cl":"UQV320","sclas_cl":"","atrb_se":"UQV320","wtnnc_sn":"11000URZ198104071944","ntfc_sn":"11000NTC198104074129","dgm_nm":"공연초등학교","dgm_ar":"11933","dgm_lt":"439","signgu_se":"11000","excut_se":"EMA0009","sig_nam":"11","lcl_nam":"학교","mls_nam":"초등학교","scl_nam":"미분류","atr_nam":"초등학교","pmi_nam":"","exc_nam":"기타"},"id":"LT_C_UPISUQ155.2518"},{"type":"Feature","geometry":{"type":"MultiPolygon","coordinates":[[[[127.04652400834541,37.62255576018834],[127.04641816079527,37.62247336084129],[127.04639768549794,37.622481072008085],[127.04633493192499,37.62251916225841],[127.0462903629096,37.622620809712195],[127.04626005155903,37.622811207273614],[127.04625900836997,37.622847237855225],[127.04615201130348,37.623115950569094],[127.04605845130621,37.6233143816774],[127.04710104742938,37.623888718582805],[127.04765605588433,37.62326682685881],[127.04765128262916,37.62324142109364],[127.0468942258316,37.622804288881014],[127.04681966435513,37.62275998931456],[127.04671529764461,37.622692275641285],[127.04663812579805,37.62263923745365],[127.0465540396125,37.62257836332839],[127.04652400834541,37.62255576018834]]]]},"properties":{"present_sn":"11000UQ155PS201912151532","lclas_cl":"UQV300","mlsfc_cl":"UQV320","sclas_cl":"","atrb_se":"UQV320","wtnnc_sn":"11000URZ200801022338","ntfc_sn":"11000NTC200801021710","dgm_nm":"초등학교(국민학교)","dgm_ar":"11259","dgm_lt":"438","signgu_se":"11000","excut_se":"EMA0009","sig_nam":"11","lcl_nam":"학교","mls_nam":"초등학교","scl_nam":"미분류","atr_nam":"초등학교","pmi_nam":"","exc_nam":"기타"},"id":"LT_C_UPISUQ155.2519"},{"type":"Feature","geometry":{"type":"MultiPolygon","coordinates":[[[[127.04799703590793,37.617242153210285],[127.04823150733034,37.61709637204848],[127.04833743588927,37.61702790058356],[127.04844494174787,37.61696436577046],[127.04876948584456,37.616756127733574],[127.04880286326906,37.61678897313633],[127.04890521765024,37.61672989982043],[127.04881226980393,37.616636712616554],[127.0489878532329,37.61652957857062],[127.04896858631834,37.6165108909656],[127.0488260748419,37.61659782976021],[127.04875664277795,37.61652527455345],[127.04866398393528,37.616584172683474],[127.04842067898969,37.61625901552871],[127.04832698884599,37.61613615892816],[127.04817996114707,37.61620987233945],[127.04807087907172,37.616287246607534],[127.04800317582041,37.61633378192699],[127.0479430587042,37.61637626881926],[127.04789157897076,37.61641126513596],[127.04779732239605,37.616469910939955],[127.04766855165808,37.616543346255526],[127.04764046506392,37.616585072648725],[127.04765727461617,37.6166783896746],[127.04772462813506,37.616834611419456],[127.04775105196214,37.616979370667025],[127.04786353029648,37.61711609543459],[127.04788097363415,37.61713498215028],[127.04799703590793,37.617242153210285]]]]},"properties":{"present_sn":"11290UQ155PS201910160004","lclas_cl":"UQV300","mlsfc_cl":"UQV320","sclas_cl":"","atrb_se":"UQV320","wtnnc_sn":"11000URZ201908130122","ntfc_sn":"11290NTC201908130004","dgm_nm":"초등학교(국민학교)","dgm_ar":"7231","dgm_lt":"393","signgu_se":"11000","excut_se":"EMA0009","sig_nam":"11","lcl_nam":"학교","mls_nam":"초등학교","scl_nam":"미분류","atr_nam":"초등학교","pmi_nam":"","exc_nam":"기타"},"id":"LT_C_UPISUQ155.2565"},{"type":"Feature","geometry":{"type":"MultiPolygon","coordinates":[[[[127.06874934673311,37.61960006781052],[127.06856318413216,37.619532510094594],[127.06812945635586,37.62040012939276],[127.0690601464774,37.62071377219699],[127.0692511802801,37.62077817288794],[127.06942816441295,37.62083780615972],[127.06949110534242,37.62060941650915],[127.06951626559037,37.62050047351347],[127.06953537456083,37.62042604153922],[127.0695806581991,37.62024982875464],[127.06964281227944,37.619967038267056],[127.06965659639444,37.61992885577599],[127.06964954866372,37.61992630106099],[127.06874934673311,37.61960006781052]]]]},"properties":{"present_sn":"11000UQ155PS202601220001","lclas_cl":"UQV300","mlsfc_cl":"UQV320","sclas_cl":"","atrb_se":"UQV320","wtnnc_sn":"11000URZ201411208334","ntfc_sn":"11350NTC202509150009","dgm_nm":"학교","dgm_ar":"11783","dgm_lt":"437","signgu_se":"11000","excut_se":"EMA0009","sig_nam":"11","lcl_nam":"학교","mls_nam":"초등학교","scl_nam":"미분류","atr_nam":"초등학교","pmi_nam":"","exc_nam":"기타"},"id":"LT_C_UPISUQ155.462"},{"type":"Feature","geometry":{"type":"MultiPolygon","coordinates":[[[[127.059139580915,37.62086761355848],[127.05939722055453,37.62071147375827],[127.05945010728149,37.62071194334803],[127.05949436464417,37.620700280950594],[127.05955166162745,37.620676764235725],[127.0596030615694,37.62067349542029],[127.05979342772223,37.62060417025479],[127.05980468388526,37.62060034454],[127.05993509838213,37.62060732572301],[127.05997606137421,37.62061263023249],[127.0600197901607,37.62060599536917],[127.0600027888999,37.62056354960878],[127.06003069247745,37.62043973208684],[127.06033462059735,37.62048251271461],[127.06073279571787,37.62051754192752],[127.06085852676276,37.62041808263788],[127.06104402196517,37.620393275334585],[127.06107209094414,37.62019504552139],[127.06107735294299,37.62001827053775],[127.06113189572791,37.61972429817553],[127.06115971044822,37.61956287349483],[127.06115653625423,37.61955955949121],[127.06114929379878,37.61945459893917],[127.06114986083954,37.619427100731826],[127.06129756202077,37.61911329562585],[127.06137174852584,37.618881462788096],[127.06124618877914,37.618879454144995],[127.06092463731856,37.61887338165773],[127.06081044744111,37.618954049803165],[127.06077687309075,37.61896639207869],[127.06067692554599,37.61949626374747],[127.06064999289828,37.61951413467576],[127.06060942944895,37.619469105974794],[127.06044101241143,37.61937272221265],[127.06048014229303,37.61933815007191],[127.06039998068553,37.61920761100495],[127.06032647519375,37.6192009623812],[127.06028555231123,37.619144923764814],[127.06026296945586,37.619119896762065],[127.0602363909962,37.619141605597385],[127.0602799204509,37.61919945390368],[127.06023945436003,37.619248919849795],[127.06013494166392,37.619192056873175],[127.06019837439901,37.6191370835647],[127.06017402669787,37.619114751353855],[127.06018514222767,37.61910524048534],[127.06011985514792,37.619048889566606],[127.06005910649814,37.619002212889974],[127.06003115317527,37.61898953193811],[127.05995042491945,37.61905976732137],[127.05985235609823,37.618986358900955],[127.05989333097672,37.618935568392416],[127.05985860855704,37.618928404747905],[127.05975900421043,37.618904541922745],[127.05974642861077,37.61890096222583],[127.05972169751973,37.618895100032624],[127.05968533705718,37.61886439452548],[127.05967740167011,37.61885592921996],[127.05969164613526,37.61884988563031],[127.05970195776537,37.61882620278035],[127.05972385555123,37.618771925928655],[127.05970724434765,37.618749607823794],[127.05969907330764,37.61875850452958],[127.05964852921755,37.61882641831493],[127.05960020227357,37.61889070003548],[127.05956447130738,37.618897456948794],[127.05951237903629,37.6188827785575],[127.0594892437888,37.61887528475672],[127.05943683464658,37.61884632594729],[127.05937205317689,37.61881290431702],[127.05932357812645,37.6187885835778],[127.0592341526906,37.61874454236989],[127.05913529226594,37.618700694906366],[127.05901470221922,37.6186504790061],[127.05890162359806,37.61860233158524],[127.05886840219115,37.61858774283968],[127.05873163766944,37.61867035705409],[127.05871135959784,37.618681142609624],[127.05867289498161,37.61869759512805],[127.05866225467373,37.61870661909528],[127.05863872549858,37.61873183991981],[127.0585973666457,37.61878508985716],[127.05856036182922,37.61882951707635],[127.0584901122543,37.618903098045074],[127.05840645027334,37.618989893810465],[127.05833534987264,37.61906215065403],[127.05827483226074,37.6190944528927],[127.0582797708964,37.6190946036842],[127.05821998904375,37.619126328913225],[127.05821952754916,37.61913015830178],[127.05805061600812,37.619228311053],[127.05805143662674,37.61923502296398],[127.05811881471045,37.61933214338593],[127.05811925671927,37.61936237106617],[127.05812877136432,37.61943711183541],[127.05824885863952,37.619614844626405],[127.05831166265779,37.61969895697434],[127.05854545811461,37.62001917877374],[127.05860541857903,37.62010179670609],[127.05874312758759,37.62028728689763],[127.0590221407123,37.62073486636386],[127.05908639202713,37.62084266434609],[127.059139580915,37.62086761355848]]],[[[127.0567807986901,37.621901913549586],[127.05675811474123,37.62187757968976],[127.05670093370576,37.62181519555535],[127.05681033091638,37.621751562191136],[127.0568252649213,37.621742536383245],[127.0568823631661,37.621708479594794],[127.0569307659533,37.62167973363416],[127.05697380311861,37.621655756359395],[127.05699031038979,37.62156890313441],[127.0570048226773,37.62149547544686],[127.05701316872636,37.621462126250144],[127.05703305603983,37.621427185899215],[127.05707033368981,37.62136590171212],[127.05713736592135,37.62127157356298],[127.05714695391538,37.621248107521986],[127.0571943003403,37.62114001263024],[127.05719786503892,37.62113549703806],[127.05734967064454,37.6209366510807],[127.0574119075225,37.62085313679945],[127.05742333688347,37.620838364320875],[127.05747992913108,37.62076522295802],[127.05749509966033,37.62075477340308],[127.05753901848487,37.62072927284393],[127.05754333192998,37.62072635162051],[127.0575473484085,37.62072015097005],[127.05754108101303,37.62071549587782],[127.05743295937276,37.62060401481599],[127.05742314567271,37.62058298157742],[127.05742027531475,37.62057683825209],[127.05735963454362,37.62046177574804],[127.05735422206682,37.62041883759121],[127.05736352481978,37.62039284891958],[127.0573975823349,37.62032827756436],[127.05759810259372,37.62027921417338],[127.0577309225729,37.62024758063608],[127.05768366531645,37.620126087927304],[127.05782622543089,37.620108405830685],[127.05791051504252,37.620085201381336],[127.05792688106172,37.6200831573445],[127.05796535907501,37.62006828178193],[127.05802125355734,37.62004747842904],[127.05809478181057,37.620023540195795],[127.05814863011267,37.62000811661568],[127.05820577418497,37.620022045365886],[127.05825845203523,37.62000169393569],[127.05815285465454,37.61985820047567],[127.05813430306728,37.61981607052736],[127.05811025324543,37.6197827277707],[127.05802932514811,37.61966726087089],[127.05800258573805,37.619627053909],[127.05796497188891,37.61957108498614],[127.057932515109,37.61951942027182],[127.05791771608075,37.619496434326045],[127.05789698293094,37.6194600175959],[127.05787042178213,37.61940067369404],[127.05783749946627,37.61933230499779],[127.05776495662124,37.61932532996633],[127.05742236322104,37.61953789887379],[127.0574072374407,37.61954728524344],[127.0572895171968,37.6196393039985],[127.05708421086378,37.61981513705681],[127.0570359439085,37.61985728961245],[127.05698591550447,37.61981551665913],[127.05691914556527,37.61975806547686],[127.0568006017124,37.61965685988479],[127.056690104469,37.619561272527854],[127.05665985354406,37.6195351582353],[127.05658571292149,37.61958881920448],[127.05691127634049,37.62035762650427],[127.05672468906066,37.62091405118947],[127.05678511799023,37.62104980061427],[127.05667941554783,37.62137557239788],[127.05667912100668,37.62137552748655],[127.056338568444,37.621330042519574],[127.05605698345694,37.621265870035245],[127.0559698398285,37.62124570129113],[127.05596965861952,37.621245737413936],[127.05573307963594,37.62129407579767],[127.05548109751992,37.62134545705386],[127.05531180313271,37.62138011395874],[127.05527408364455,37.62144330786967],[127.05525461334679,37.62147649082328],[127.05536297814326,37.621519517288675],[127.05547031227789,37.62156253511558],[127.05558170228252,37.62160636186861],[127.05569265082441,37.621650422973595],[127.0558010386096,37.62169321476993],[127.05590854307647,37.62173612400086],[127.05602038685286,37.62178017537423],[127.05625892923177,37.621874190351114],[127.0562493348809,37.62190492722918],[127.05625962075493,37.62190585046792],[127.05650916760753,37.62192967348997],[127.05657045605318,37.621894002146675],[127.05663288445945,37.621960276126586],[127.05664843805462,37.62197722530533],[127.05669068279657,37.62195355483835],[127.05675708947153,37.621915655584765],[127.0567807986901,37.621901913549586]]],[[[127.05510300569415,37.62014535253216],[127.05506066552735,37.6200668152775],[127.05505448524987,37.62005698838622],[127.05501941519303,37.61999155708083],[127.05486611593345,37.62007169659655],[127.05486289773799,37.62006985104164],[127.05468245476989,37.62019240271588],[127.0546794900794,37.62019661162926],[127.05462499520576,37.62030748376654],[127.05462221829106,37.62033682994306],[127.05462060997063,37.620352931183874],[127.0546178917189,37.620385133441054],[127.05461526863655,37.62040781229405],[127.05458087876411,37.62048631214998],[127.05457401577424,37.62050398345785],[127.05456401216706,37.62051742156985],[127.05455122034282,37.62054434860795],[127.05448464391156,37.620678129019225],[127.05440228267713,37.620819637864486],[127.05440896313888,37.6208320233482],[127.05445205244875,37.620913101254544],[127.05446102448184,37.62093037802955],[127.05450248870922,37.62093998188926],[127.05454485842911,37.620948612268954],[127.0546095456161,37.62094544777517],[127.05464145084943,37.62092476493286],[127.0547578487951,37.6208453901864],[127.05486357511269,37.620780165537305],[127.0549489461825,37.620730473898945],[127.05497365168728,37.62071609207708],[127.05499898401405,37.62070707079815],[127.05506817667971,37.620684641054424],[127.0551278372011,37.62066963967741],[127.05526301979974,37.620628989034195],[127.05529179617199,37.62062089413341],[127.05536302417049,37.62059377819204],[127.05529267795845,37.62046121300706],[127.05527940732999,37.6204363069496],[127.05521978153381,37.62032604510458],[127.05518323745817,37.620321944247976],[127.05513300158078,37.62024261774916],[127.05512685399896,37.62023103393561],[127.05512662207721,37.62019198555594],[127.05510300569415,37.62014535253216]]]]},"properties":{"present_sn":"11000UQ155PS201912151647","lclas_cl":"UQV300","mlsfc_cl":"UQV350","sclas_cl":"","atrb_se":"UQV350","wtnnc_sn":"11000URZ201708107241","ntfc_sn":"11000NTC201708108247","dgm_nm":"학교","dgm_ar":"70201","dgm_lt":"2417","signgu_se":"11000","excut_se":"EMA0009","sig_nam":"11","lcl_nam":"학교","mls_nam":"대학","scl_nam":"미분류","atr_nam":"대학","pmi_nam":"","exc_nam":"기타"},"id":"LT_C_UPISUQ155.71"},{"type":"Feature","geometry":{"type":"MultiPolygon","coordinates":[[[[127.06147863004534,37.631238243300736],[127.0618331747495,37.63146366764216],[127.06170435697133,37.63159203275297],[127.06231042592262,37.63198382790902],[127.06241926403855,37.63194457922664],[127.06243919586323,37.631936099740955],[127.06245844677689,37.63192617903804],[127.06247622368734,37.63191472743003],[127.06249241411564,37.63190273605203],[127.06250894374072,37.63188993361589],[127.06252490566726,37.6318755998075],[127.06253045141143,37.6318690197976],[127.06264680442817,37.631738047411474],[127.0626812091215,37.631695503400174],[127.06272002365297,37.63164277603467],[127.06275407657024,37.631585816528045],[127.06277500677628,37.63155165857993],[127.0628048697445,37.63149686358117],[127.06284218691918,37.63141440466035],[127.06286343749778,37.631356640891696],[127.06297372772414,37.63101862644989],[127.06300367467485,37.63092869318717],[127.0630632325126,37.63075369209472],[127.06297519349316,37.63073499762286],[127.06295264630202,37.630731135155166],[127.06236411123709,37.6305777331277],[127.06223900918238,37.63053590205902],[127.06223448140112,37.630540409282034],[127.06168503424675,37.63109127873686],[127.0616506909413,37.63106976285444],[127.06154824689801,37.63117009392774],[127.06147863004534,37.631238243300736]]]]},"properties":{"present_sn":"11000UQ155PS201912150907","lclas_cl":"UQV300","mlsfc_cl":"UQV330","sclas_cl":"","atrb_se":"UQV330","wtnnc_sn":"11000URZ199701094838","ntfc_sn":"11000NTC199701096632","dgm_nm":"녹천중학교","dgm_ar":"13030","dgm_lt":"467","signgu_se":"11000","excut_se":"EMA0009","sig_nam":"11","lcl_nam":"학교","mls_nam":"중학교","scl_nam":"미분류","atr_nam":"중학교","pmi_nam":"","exc_nam":"기타"},"id":"LT_C_UPISUQ155.986"},{"type":"Feature","geometry":{"type":"MultiPolygon","coordinates":[[[[127.04799703590793,37.617242153210285],[127.04823150733034,37.61709637204848],[127.04833743588927,37.61702790058356],[127.04844494174787,37.61696436577046],[127.04876948584456,37.616756127733574],[127.04880286326906,37.61678897313633],[127.04890521765024,37.61672989982043],[127.04881226980393,37.616636712616554],[127.0489878532329,37.61652957857062],[127.04896858631834,37.6165108909656],[127.0488260748419,37.61659782976021],[127.04875664277795,37.61652527455345],[127.04866398393528,37.616584172683474],[127.04842067898969,37.61625901552871],[127.04832698884599,37.61613615892816],[127.04817996114707,37.61620987233945],[127.04807087907172,37.616287246607534],[127.04800317582041,37.61633378192699],[127.0479430587042,37.61637626881926],[127.04789157897076,37.61641126513596],[127.04779732239605,37.616469910939955],[127.04766855165808,37.616543346255526],[127.04764046506392,37.616585072648725],[127.04765727461617,37.6166783896746],[127.04772462813506,37.616834611419456],[127.04775105196214,37.616979370667025],[127.04786353029648,37.61711609543459],[127.04788097363415,37.61713498215028],[127.04799703590793,37.617242153210285]]]]},"properties":{"present_sn":"11290UQ155PS201910160053","lclas_cl":"UQV300","mlsfc_cl":"UQV320","sclas_cl":"","atrb_se":"UQV320","wtnnc_sn":"11000URZ201908130122","ntfc_sn":"11290NTC201908130004","dgm_nm":"초등학교(국민학교)","dgm_ar":"7231","dgm_lt":"393","signgu_se":"11000","excut_se":"EMA0009","sig_nam":"11","lcl_nam":"학교","mls_nam":"초등학교","scl_nam":"미분류","atr_nam":"초등학교","pmi_nam":"","exc_nam":"기타"},"id":"LT_C_UPISUQ155.994"}]}