{"type":"FeatureCollection","timestamp":"2026-10-04T12:54:20Z","features":[{"type":"Feature","id":"osm.way.45769178","geometry":{"type":"LineString","coordinates":[[127.0685,37.607187],[127.068497,37.607873],[127.06851,37.608098],[127.068527,37.608245],[127.068567,37.608637],[127.068597,37.608962],[127.068607,37.609156],[127.068545,37.6101],[127.068523,37.610224],[127.068489,37.610356],[127.068425,37.610495],[127.068322,37.610676],[127.068201,37.610876],[127.068094,37.611055],[127.068,37.611199],[127.067813,37.611453]]},"properties":{"osm_id":45769178,"railway":"rail","service":"yard"}},{"type":"Feature","id":"osm.way.45769198","geometry":{"type":"LineString","coordinates":[[127.06359,37.62103],[127.063515,37.621407],[127.063469,37.621577],[127.063365,37.62187],[127.063233,37.622172],[127.062401,37.62408],[127.062236,37.624416]]},"properties":{"osm_id":45769198,"railway":"rail","service":"siding"}},{"type":"Feature","id":"osm.way.45769213","geometry":{"type":"LineString","coordinates":[[127.060579,37.626774],[127.060468,37.627031],[127.060372,37.627339],[127.060339,37.627546],[127.060315,37.62777],[127.060331,37.628025],[127.06039,37.628385],[127.060457,37.628609],[127.060529,37.62878],[127.060662,37.629063],[127.06079,37.629254],[127.06106,37.629538],[127.061271,37.629716],[127.061651,37.62999],[127.061825,37.630101],[127.062047,37.630215]]},"properties":{"osm_id":45769213,"railway":"rail","service":"siding"}},{"type":"Feature","id":"osm.way.425322313","geometry":{"type":"LineString","coordinates":[[127.069992,37.600278],[127.069721,37.600434],[127.069449,37.600598],[127.069223,37.600772],[127.069038,37.600941],[127.068816,37.601157],[127.068642,37.601358],[127.068452,37.601623],[127.0683,37.601862],[127.068182,37.60211],[127.068083,37.602357],[127.068008,37.602629],[127.067957,37.602903],[127.067929,37.603165],[127.067913,37.603512],[127.06791,37.603787],[127.067874,37.605224],[127.067849,37.605935],[127.067831,37.606893],[127.067796,37.608558],[127.067748,37.609487],[127.067709,37.609821],[127.067661,37.610136],[127.067626,37.610311]]},"properties":{"osm_id":425322313,"railway":"rail","name":"망우선","usage":"branch","layer":"1"}},{"type":"Feature","id":"osm.way.425322314","geometry":{"type":"LineString","coordinates":[[127.068009,37.603316],[127.068003,37.603569],[127.067984,37.60448],[127.067974,37.604961],[127.067936,37.606635],[127.067915,37.6077],[127.067891,37.608641],[127.067854,37.609512],[127.067825,37.610115],[127.0678,37.610483],[127.067776,37.610716],[127.067673,37.6112],[127.067592,37.611465],[127.067515,37.611663],[127.067475,37.611744],[127.067227,37.612236],[127.067188,37.612321],[127.066894,37.612817],[127.066861,37.612887]]},"properties":{"osm_id":425322314,"railway":"rail","service":"yard"}},{"type":"Feature","id":"osm.way.425322320","geometry":{"type":"LineString","coordinates":[[127.067475,37.611744],[127.067237,37.61212],[127.067132,37.612329]]},"properties":{"osm_id":425322320,"railway":"rail","service":"yard"}},{"type":"Feature","id":"osm.way.425322321","geometry":{"type":"LineString","coordinates":[[127.067227,37.612236],[127.067395,37.611975],[127.067584,37.611701],[127.067653,37.611564],[127.067708,37.611413],[127.067754,37.61127],[127.067795,37.611104],[127.067834,37.610888],[127.067907,37.610318],[127.067935,37.610046],[127.068031,37.608295],[127.068034,37.608043]]},"properties":{"osm_id":425322321,"railway":"rail","service":"yard"}},{"type":"Feature","id":"osm.way.425322323","geometry":{"type":"LineString","coordinates":[[127.067395,37.611975],[127.067612,37.611708],[127.067742,37.61155],[127.067813,37.611453],[127.067966,37.611202],[127.068039,37.611072],[127.068291,37.610642],[127.068382,37.610453],[127.068431,37.610316],[127.068468,37.610179],[127.06849,37.610026],[127.068506,37.609851],[127.068555,37.609067],[127.068565,37.608854],[127.068567,37.608637]]},"properties":{"osm_id":425322323,"railway":"rail","service":"yard"}},{"type":"Feature","id":"osm.way.425322324","geometry":{"type":"LineString","coordinates":[[127.06793,37.604516],[127.067898,37.605957],[127.06788,37.607109],[127.067799,37.609711],[127.067783,37.610083],[127.067756,37.61036],[127.067722,37.61059],[127.067687,37.61075],[127.067636,37.610946],[127.067583,37.611135],[127.067535,37.611283],[127.067447,37.611495],[127.067343,37.611769],[127.067263,37.611945],[127.066866,37.612801],[127.06684,37.612862]]},"properties":{"osm_id":425322324,"railway":"rail","service":"yard"}},{"type":"Feature","id":"osm.way.425322326","geometry":{"type":"LineString","coordinates":[[127.068343,37.608159],[127.068309,37.608532],[127.068242,37.609627],[127.068226,37.609842],[127.068205,37.609969],[127.068165,37.610138],[127.068051,37.610518],[127.067994,37.610701],[127.067827,37.611109],[127.067708,37.611413]]},"properties":{"osm_id":425322326,"railway":"rail","service":"yard"}},{"type":"Feature","id":"osm.way.425322327","geometry":{"type":"LineString","coordinates":[[127.067795,37.611104],[127.067878,37.610787],[127.068081,37.610096],[127.068128,37.60989],[127.068142,37.609742],[127.068187,37.608951],[127.068201,37.608656],[127.068226,37.608334],[127.068236,37.607811],[127.068237,37.60718]]},"properties":{"osm_id":425322327,"railway":"rail","service":"yard"}},{"type":"Feature","id":"osm.way.425322328","geometry":{"type":"LineString","coordinates":[[127.067827,37.611109],[127.067947,37.610716],[127.068051,37.610347],[127.068152,37.609991],[127.068175,37.609877],[127.068191,37.609753],[127.068246,37.60879],[127.06826,37.608656],[127.068281,37.608482]]},"properties":{"osm_id":425322328,"railway":"rail","service":"yard"}},{"type":"Feature","id":"osm.way.425322332","geometry":{"type":"LineString","coordinates":[[127.06812,37.60849],[127.068099,37.609251],[127.068078,37.609456],[127.06801,37.609927],[127.067943,37.610405],[127.06792,37.610558],[127.067878,37.610787]]},"properties":{"osm_id":425322332,"railway":"rail","service":"yard"}},{"type":"Feature","id":"osm.way.425322333","geometry":{"type":"LineString","coordinates":[[127.067803,37.611307],[127.0679,37.611104],[127.067969,37.610931],[127.068059,37.610653],[127.06812,37.610446],[127.068238,37.610072],[127.068267,37.609919],[127.068283,37.609772],[127.068372,37.608483],[127.068394,37.60784]]},"properties":{"osm_id":425322333,"railway":"rail","service":"yard"}},{"type":"Feature","id":"osm.way.425322334","geometry":{"type":"LineString","coordinates":[[127.067969,37.610931],[127.068139,37.610538],[127.068203,37.61039],[127.068261,37.610228],[127.068285,37.610131],[127.068304,37.610009],[127.06832,37.609863],[127.068425,37.608316],[127.068431,37.607542],[127.068434,37.607345],[127.068433,37.607177]]},"properties":{"osm_id":425322334,"railway":"rail","service":"yard"}},{"type":"Feature","id":"osm.way.425322335","geometry":{"type":"LineString","coordinates":[[127.067188,37.612321],[127.067066,37.612597],[127.067035,37.612666],[127.066915,37.612938]]},"properties":{"osm_id":425322335,"railway":"rail","service":"yard"}},{"type":"Feature","id":"osm.way.425322336","geometry":{"type":"LineString","coordinates":[[127.066868,37.612888],[127.066895,37.612839],[127.067035,37.612666],[127.067309,37.612332]]},"properties":{"osm_id":425322336,"railway":"rail","service":"yard"}},{"type":"Feature","id":"osm.way.425322337","geometry":{"type":"LineString","coordinates":[[127.068896,37.606771],[127.068892,37.608278],[127.068841,37.609052],[127.068816,37.609478],[127.068797,37.609909],[127.06879,37.610073],[127.068776,37.610216],[127.068744,37.610338],[127.068696,37.610481],[127.068643,37.610603],[127.06856,37.610741],[127.068438,37.610929],[127.068186,37.611272],[127.067981,37.61155],[127.067788,37.611788],[127.06756,37.612047],[127.067309,37.612332],[127.067135,37.612587],[127.066999,37.61281],[127.066921,37.61294]]},"properties":{"osm_id":425322337,"railway":"rail","service":"yard"}},{"type":"Feature","id":"osm.way.425371591","geometry":{"type":"LineString","coordinates":[[127.067964,37.611519],[127.068104,37.611305],[127.068234,37.611133],[127.068427,37.610871],[127.068551,37.610668],[127.068596,37.610569],[127.068669,37.610394],[127.068712,37.610235],[127.06873,37.610098],[127.068747,37.609887],[127.068755,37.60936],[127.068744,37.609249],[127.068698,37.608959],[127.068616,37.60865],[127.06857,37.608476],[127.068552,37.608396],[127.068527,37.608245]]},"properties":{"osm_id":425371591,"railway":"rail","service":"yard"}},{"type":"Feature","id":"osm.way.425371592","geometry":{"type":"LineString","coordinates":[[127.068616,37.60865],[127.068657,37.608868],[127.068668,37.60899],[127.068697,37.609317],[127.068707,37.609478],[127.068704,37.609559],[127.068669,37.610108],[127.068646,37.610232],[127.068604,37.610374],[127.068548,37.610509],[127.06848,37.610633],[127.068349,37.610835],[127.068188,37.611112],[127.067964,37.611519],[127.067915,37.611603],[127.067859,37.611692],[127.067788,37.611788]]},"properties":{"osm_id":425371592,"railway":"rail","service":"yard"}},{"type":"Feature","id":"osm.way.425371593","geometry":{"type":"LineString","coordinates":[[127.068668,37.60899],[127.068666,37.609217],[127.068655,37.609386],[127.068615,37.610035],[127.068595,37.610194],[127.06856,37.610338],[127.06851,37.610464],[127.068431,37.610617],[127.068303,37.610818],[127.068149,37.611094],[127.067833,37.611666],[127.067734,37.611818],[127.06756,37.612047]]},"properties":{"osm_id":425371593,"railway":"rail","service":"yard"}},{"type":"Feature","id":"osm.way.425371594","geometry":{"type":"LineString","coordinates":[[127.068497,37.607873],[127.068491,37.608252],[127.068464,37.608716],[127.06844,37.609096],[127.068387,37.609955],[127.068357,37.610178],[127.068306,37.61036],[127.068245,37.610518],[127.068163,37.610679],[127.068052,37.610868],[127.067803,37.611307],[127.067684,37.611529],[127.067584,37.611701]]},"properties":{"osm_id":425371594,"railway":"rail","service":"yard"}},{"type":"Feature","id":"osm.way.425371595","geometry":{"type":"LineString","coordinates":[[127.067612,37.611708],[127.067747,37.611502],[127.068052,37.610969],[127.068206,37.6107],[127.068291,37.610526],[127.06835,37.61037],[127.068401,37.610214],[127.068426,37.610096],[127.068437,37.61],[127.068499,37.609054],[127.068519,37.6087],[127.068517,37.608608],[127.068505,37.608478],[127.068497,37.608397],[127.068491,37.608252]]},"properties":{"osm_id":425371595,"railway":"rail","service":"yard"}},{"type":"Feature","id":"osm.way.425371596","geometry":{"type":"LineString","coordinates":[[127.0658,37.615145],[127.065718,37.615343],[127.065701,37.615393],[127.065681,37.615482],[127.06567,37.615525],[127.065586,37.615738]]},"properties":{"osm_id":425371596,"railway":"rail","service":"crossover"}},{"type":"Feature","id":"osm.way.425371598","geometry":{"type":"LineString","coordinates":[[127.065703,37.614835],[127.065558,37.615159],[127.065335,37.615731],[127.065312,37.615791],[127.065255,37.615938],[127.065104,37.616336],[127.064927,37.616745]]},"properties":{"osm_id":425371598,"railway":"rail","name":"경원선","usage":"main"}},{"type":"Feature","id":"osm.way.425371599","geometry":{"type":"LineString","coordinates":[[127.065859,37.614879],[127.066062,37.614397],[127.066148,37.614182],[127.066195,37.614064]]},"properties":{"osm_id":425371599,"railway":"rail","name":"경원선","usage":"main","bridge":"yes","layer":"1"}},{"type":"Feature","id":"osm.way.425371600","geometry":{"type":"LineString","coordinates":[[127.065907,37.614894],[127.0658,37.615145],[127.065574,37.61564],[127.065454,37.615924],[127.065338,37.616155],[127.06523,37.616359],[127.065156,37.61651],[127.065037,37.616775]]},"properties":{"osm_id":425371600,"railway":"rail","name":"망우선","usage":"branch","layer":"1"}},{"type":"Feature","id":"osm.way.425371601","geometry":{"type":"LineString","coordinates":[[127.065955,37.614908],[127.065872,37.615096],[127.065795,37.615278],[127.065586,37.615738],[127.065463,37.616008],[127.06537,37.616204],[127.065239,37.616456],[127.065088,37.616789]]},"properties":{"osm_id":425371601,"railway":"rail","service":"yard"}},{"type":"Feature","id":"osm.way.425371602","geometry":{"type":"LineString","coordinates":[[127.066292,37.614092],[127.066167,37.614392],[127.066064,37.614659],[127.065955,37.614908]]},"properties":{"osm_id":425371602,"railway":"rail","service":"yard","bridge":"yes","layer":"1"}},{"type":"Feature","id":"osm.way.425371603","geometry":{"type":"LineString","coordinates":[[127.066248,37.61408],[127.066113,37.614408],[127.065907,37.614894]]},"properties":{"osm_id":425371603,"railway":"rail","name":"망우선","usage":"branch","bridge":"yes","layer":"1"}},{"type":"Feature","id":"osm.way.425371604","geometry":{"type":"LineString","coordinates":[[127.067579,37.610304],[127.067665,37.609801],[127.06771,37.609361],[127.067745,37.608555],[127.067792,37.606625],[127.0678,37.606124],[127.067839,37.605015],[127.067839,37.604579],[127.067837,37.604119],[127.067819,37.603746],[127.067788,37.603442],[127.06776,37.603156],[127.067746,37.603039]]},"properties":{"osm_id":425371604,"railway":"rail","name":"경원선","usage":"main"}},{"type":"Feature","id":"osm.way.425371605","geometry":{"type":"LineString","coordinates":[[127.066067,37.614026],[127.065703,37.614835]]},"properties":{"osm_id":425371605,"railway":"rail","name":"경원선","usage":"main","bridge":"yes","layer":"1"}},{"type":"Feature","id":"osm.way.425371607","geometry":{"type":"LineString","coordinates":[[127.064853,37.617038],[127.064976,37.616758]]},"properties":{"osm_id":425371607,"railway":"rail","name":"경원선","usage":"main","bridge":"yes","layer":"1"}},{"type":"Feature","id":"osm.way.425371608","geometry":{"type":"LineString","coordinates":[[127.060756,37.625832],[127.06071,37.625927],[127.060585,37.626254],[127.060449,37.626611],[127.060324,37.626885],[127.060231,37.627103],[127.060066,37.627502],[127.05987,37.627938],[127.059673,37.62838]]},"properties":{"osm_id":425371608,"railway":"rail","name":"경원선","usage":"main"}},{"type":"Feature","id":"osm.way.425371609","geometry":{"type":"LineString","coordinates":[[127.064976,37.616758],[127.065077,37.616545],[127.065163,37.616372],[127.065292,37.616123],[127.065391,37.61593],[127.06576,37.615115],[127.065859,37.614879]]},"properties":{"osm_id":425371609,"railway":"rail","name":"경원선","usage":"main"}},{"type":"Feature","id":"osm.way.425371610","geometry":{"type":"LineString","coordinates":[[127.064927,37.616745],[127.064807,37.617025]]},"properties":{"osm_id":425371610,"railway":"rail","name":"경원선","usage":"main","bridge":"yes","layer":"1"}},{"type":"Feature","id":"osm.way.425371611","geometry":{"type":"LineString","coordinates":[[127.064965,37.61707],[127.064806,37.617436],[127.064552,37.618015]]},"properties":{"osm_id":425371611,"railway":"rail","service":"yard"}},{"type":"Feature","id":"osm.way.425371612","geometry":{"type":"LineString","coordinates":[[127.064915,37.617056],[127.064665,37.617594],[127.064485,37.617982],[127.064389,37.618188],[127.064241,37.618527],[127.064186,37.618647],[127.06408,37.618857]]},"properties":{"osm_id":425371612,"railway":"rail","name":"망우선","usage":"branch","layer":"1"}},{"type":"Feature","id":"osm.way.425371613","geometry":{"type":"LineString","coordinates":[[127.065088,37.616789],[127.064965,37.61707]]},"properties":{"osm_id":425371613,"railway":"rail","service":"yard","bridge":"yes","layer":"1"}},{"type":"Feature","id":"osm.way.425371614","geometry":{"type":"LineString","coordinates":[[127.065037,37.616775],[127.064915,37.617056]]},"properties":{"osm_id":425371614,"railway":"rail","name":"망우선","usage":"branch","bridge":"yes","layer":"1"}},{"type":"Feature","id":"osm.way.425371616","geometry":{"type":"LineString","coordinates":[[127.064615,37.617445],[127.064438,37.61794]]},"properties":{"osm_id":425371616,"railway":"rail","service":"crossover"}},{"type":"Feature","id":"osm.way.425371617","geometry":{"type":"LineString","coordinates":[[127.064013,37.618838],[127.064182,37.618564],[127.064226,37.618483],[127.064389,37.618188]]},"properties":{"osm_id":425371617,"railway":"rail","service":"crossover"}},{"type":"Feature","id":"osm.way.425371618","geometry":{"type":"LineString","coordinates":[[127.064332,37.618173],[127.064226,37.618483],[127.064176,37.618632],[127.06408,37.618857]]},"properties":{"osm_id":425371618,"railway":"rail","service":"crossover"}},{"type":"Feature","id":"osm.way.425371619","geometry":{"type":"LineString","coordinates":[[127.063582,37.619959],[127.063682,37.619673],[127.063731,37.619483],[127.063754,37.619409],[127.063766,37.61937],[127.06385,37.619151]]},"properties":{"osm_id":425371619,"railway":"rail","service":"crossover"}},{"type":"Feature","id":"osm.way.425371620","geometry":{"type":"LineString","coordinates":[[127.063345,37.620245],[127.063475,37.619987],[127.063528,37.619879],[127.06365,37.61962]]},"properties":{"osm_id":425371620,"railway":"rail","service":"crossover"}},{"type":"Feature","id":"osm.way.425371621","geometry":{"type":"LineString","coordinates":[[127.06243,37.622123],[127.062589,37.621781],[127.062684,37.621549],[127.062808,37.621254],[127.062865,37.621141],[127.062981,37.620909]]},"properties":{"osm_id":425371621,"railway":"rail","service":"yard"}},{"type":"Feature","id":"osm.way.425371622","geometry":{"type":"LineString","coordinates":[[127.061122,37.625477],[127.061387,37.624878],[127.062569,37.622218],[127.063079,37.621039],[127.063448,37.62027]]},"properties":{"osm_id":425371622,"railway":"rail","service":"siding"}},{"type":"Feature","id":"osm.way.425371623","geometry":{"type":"LineString","coordinates":[[127.061137,37.625572],[127.061155,37.62553],[127.061319,37.625139],[127.061458,37.624839],[127.061477,37.624798],[127.06205,37.623502]]},"properties":{"osm_id":425371623,"railway":"rail","service":"siding"}},{"type":"Feature","id":"osm.way.425371625","geometry":{"type":"LineString","coordinates":[[127.061122,37.625477],[127.061269,37.62502]]},"properties":{"osm_id":425371625,"railway":"rail","service":"crossover"}},{"type":"Feature","id":"osm.way.425371626","geometry":{"type":"LineString","coordinates":[[127.061084,37.625557],[127.060925,37.626045]]},"properties":{"osm_id":425371626,"railway":"rail","service":"crossover"}},{"type":"Feature","id":"osm.way.425371628","geometry":{"type":"LineString","coordinates":[[127.060639,37.626666],[127.060971,37.626101]]},"properties":{"osm_id":425371628,"railway":"rail","service":"siding"}},{"type":"Feature","id":"osm.way.425371630","geometry":{"type":"LineString","coordinates":[[127.060759,37.625937],[127.060585,37.626254],[127.060402,37.626589]]},"properties":{"osm_id":425371630,"railway":"rail","service":"yard"}},{"type":"Feature","id":"osm.way.425371632","geometry":{"type":"LineString","coordinates":[[127.06072,37.626249],[127.060894,37.625868],[127.060988,37.625664],[127.061093,37.625422],[127.061269,37.62502]]},"properties":{"osm_id":425371632,"railway":"rail","name":"경원선","usage":"main"}},{"type":"Feature","id":"osm.way.425371633","geometry":{"type":"LineString","coordinates":[[127.059673,37.62838],[127.059788,37.628152],[127.060041,37.627695]]},"properties":{"osm_id":425371633,"railway":"rail","service":"crossover"}},{"type":"Feature","id":"osm.way.425371634","geometry":{"type":"LineString","coordinates":[[127.06071,37.625927],[127.060402,37.626589],[127.060204,37.627004],[127.060085,37.627283],[127.059987,37.627532],[127.059829,37.627939]]},"properties":{"osm_id":425371634,"railway":"rail","service":"yard"}},{"type":"Feature","id":"osm.way.425371635","geometry":{"type":"LineString","coordinates":[[127.060449,37.626611],[127.060759,37.625937],[127.060848,37.62574],[127.061078,37.625199]]},"properties":{"osm_id":425371635,"railway":"rail","service":"crossover"}},{"type":"Feature","id":"osm.way.425374187","geometry":{"type":"LineString","coordinates":[[127.061155,37.62553],[127.061398,37.625171],[127.061484,37.625061],[127.061645,37.624854],[127.061737,37.624676],[127.061811,37.62454],[127.061888,37.624371],[127.062555,37.622911],[127.062903,37.622093],[127.062996,37.621867],[127.063052,37.62169],[127.063148,37.62138],[127.063295,37.620933],[127.063336,37.620792],[127.063381,37.620626],[127.063447,37.620458],[127.063516,37.620297],[127.06359,37.62013],[127.06369,37.619907]]},"properties":{"osm_id":425374187,"railway":"rail","service":"siding"}},{"type":"Feature","id":"osm.way.425374189","geometry":{"type":"LineString","coordinates":[[127.063909,37.619462],[127.063942,37.619396],[127.064099,37.619019],[127.064173,37.618866],[127.064393,37.618441],[127.064487,37.618249],[127.06463,37.617934],[127.064672,37.617836]]},"properties":{"osm_id":425374189,"railway":"rail","service":"yard"}},{"type":"Feature","id":"osm.way.425374190","geometry":{"type":"LineString","coordinates":[[127.062069,37.623203],[127.062112,37.62311],[127.062518,37.622207],[127.063001,37.621108]]},"properties":{"osm_id":425374190,"railway":"rail","name":"경원선","usage":"main"}},{"type":"Feature","id":"osm.way.425383751","geometry":{"type":"LineString","coordinates":[[127.063837,37.619376],[127.06369,37.619907],[127.063544,37.62041],[127.063185,37.621584],[127.06309,37.621852],[127.062998,37.62209],[127.062586,37.622987],[127.062312,37.623598],[127.062171,37.623917],[127.0619,37.624538],[127.0618,37.624721],[127.06164,37.624968],[127.061607,37.625015],[127.061413,37.625294],[127.061262,37.62553],[127.061192,37.625639],[127.061044,37.625958],[127.060971,37.626101],[127.060657,37.626712]]},"properties":{"osm_id":425383751,"railway":"rail","service":"yard"}},{"type":"Feature","id":"osm.way.425383756","geometry":{"type":"LineString","coordinates":[[127.061014,37.626133],[127.061268,37.625725],[127.061409,37.62555],[127.061501,37.625442],[127.061632,37.625304],[127.061769,37.625147],[127.061916,37.624983],[127.062022,37.624901],[127.062156,37.624776],[127.062231,37.624706],[127.062484,37.624394],[127.062631,37.624161],[127.062787,37.623911],[127.063092,37.62325],[127.063213,37.622939],[127.063379,37.622576],[127.0635,37.622313],[127.063548,37.622126],[127.063566,37.621999],[127.063587,37.621907],[127.063625,37.621668],[127.063732,37.621021]]},"properties":{"osm_id":425383756,"railway":"rail","service":"siding"}},{"type":"Feature","id":"osm.way.425383757","geometry":{"type":"LineString","coordinates":[[127.061044,37.625958],[127.061293,37.625584],[127.061676,37.625179],[127.061802,37.625067],[127.061901,37.624945],[127.061948,37.624888],[127.062108,37.624674],[127.062195,37.624502],[127.062236,37.624416],[127.062291,37.624332],[127.062369,37.624207],[127.062409,37.624144],[127.062532,37.623873],[127.063424,37.621846],[127.063505,37.621639],[127.063553,37.621484],[127.0636,37.621357],[127.063646,37.621214]]},"properties":{"osm_id":425383757,"railway":"rail","service":"siding"}},{"type":"Feature","id":"osm.way.425383758","geometry":{"type":"LineString","coordinates":[[127.062409,37.624144],[127.062525,37.623963],[127.062559,37.623886],[127.063153,37.622542],[127.063539,37.62167],[127.063583,37.621533],[127.063646,37.621214]]},"properties":{"osm_id":425383758,"railway":"rail","service":"yard"}},{"type":"Feature","id":"osm.way.425383760","geometry":{"type":"LineString","coordinates":[[127.063478,37.622624],[127.063595,37.622339],[127.06366,37.622092],[127.063684,37.621933],[127.063721,37.621653],[127.06372,37.621383],[127.063725,37.62132],[127.063732,37.621021],[127.063735,37.620895],[127.063732,37.620704]]},"properties":{"osm_id":425383760,"railway":"rail","service":"yard"}},{"type":"Feature","id":"osm.way.425383761","geometry":{"type":"LineString","coordinates":[[127.061901,37.624945],[127.062072,37.624661],[127.063208,37.622149],[127.063338,37.621815],[127.063456,37.621426],[127.063524,37.621207],[127.06359,37.62103],[127.063612,37.620868],[127.063642,37.62073],[127.063663,37.620553]]},"properties":{"osm_id":425383761,"railway":"rail","service":"yard"}},{"type":"Feature","id":"osm.way.425545541","geometry":{"type":"LineString","coordinates":[[127.061607,37.625015],[127.061769,37.624847],[127.061859,37.624723],[127.061947,37.624576],[127.062018,37.624432],[127.062859,37.622565],[127.063092,37.622006],[127.063131,37.62191],[127.063181,37.621765],[127.063439,37.620913],[127.063547,37.620576],[127.063606,37.620418],[127.063653,37.620234],[127.063685,37.620104],[127.063827,37.619693]]},"properties":{"osm_id":425545541,"railway":"rail","service":"yard"}},{"type":"Feature","id":"osm.way.425545544","geometry":{"type":"LineString","coordinates":[[127.063663,37.620553],[127.063536,37.620932],[127.063484,37.621106],[127.063331,37.621594],[127.063178,37.622008],[127.063175,37.622016],[127.063118,37.622164],[127.062842,37.622811],[127.062149,37.624346],[127.062022,37.624611],[127.06195,37.624718],[127.061865,37.62483],[127.06172,37.624979],[127.061697,37.625003],[127.061413,37.625294]]},"properties":{"osm_id":425545544,"railway":"rail","service":"yard"}},{"type":"Feature","id":"osm.way.425545547","geometry":{"type":"LineString","coordinates":[[127.06172,37.624979],[127.061924,37.624693],[127.061996,37.624587],[127.06205,37.624482],[127.062109,37.624361],[127.06299,37.622376],[127.063115,37.622083],[127.063179,37.621916],[127.063242,37.621738],[127.06341,37.621188],[127.063515,37.620828],[127.063607,37.620525],[127.063635,37.620344],[127.063653,37.620234]]},"properties":{"osm_id":425545547,"railway":"rail","service":"yard"}},{"type":"Feature","id":"osm.way.554387878","geometry":{"type":"LineString","coordinates":[[127.063001,37.621108],[127.063243,37.620586],[127.063426,37.620188],[127.063505,37.620022],[127.06365,37.61962],[127.063741,37.619393],[127.06385,37.619151]]},"properties":{"osm_id":554387878,"railway":"rail","name":"경원선","usage":"main"}},{"type":"Feature","id":"osm.way.625354987","geometry":{"type":"LineString","coordinates":[[127.06243,37.622123],[127.06254,37.621921],[127.062639,37.621745],[127.062689,37.621661],[127.062757,37.621545],[127.062852,37.621385],[127.063001,37.621108]]},"properties":{"osm_id":625354987,"railway":"rail","service":"yard"}},{"type":"Feature","id":"osm.way.625354988","geometry":{"type":"LineString","coordinates":[[127.06243,37.622123],[127.062263,37.622502],[127.062121,37.62282],[127.062082,37.622908],[127.061717,37.623744]]},"properties":{"osm_id":625354988,"railway":"rail","service":"siding"}},{"type":"Feature","id":"osm.way.625354989","geometry":{"type":"LineString","coordinates":[[127.061078,37.625199],[127.060931,37.625638],[127.060836,37.625933],[127.060794,37.626054],[127.06072,37.626249]]},"properties":{"osm_id":625354989,"railway":"rail","service":"crossover"}},{"type":"Feature","id":"osm.way.625354990","geometry":{"type":"LineString","coordinates":[[127.064438,37.61794],[127.0646,37.617584],[127.064853,37.617038]]},"properties":{"osm_id":625354990,"railway":"rail","name":"경원선","usage":"main"}},{"type":"Feature","id":"osm.way.625354991","geometry":{"type":"LineString","coordinates":[[127.064807,37.617025],[127.064646,37.617376],[127.064615,37.617445]]},"properties":{"osm_id":625354991,"railway":"rail","name":"경원선","usage":"main"}},{"type":"Feature","id":"osm.way.625354992","geometry":{"type":"LineString","coordinates":[[127.060318,37.627211],[127.060398,37.627049],[127.060509,37.626816],[127.060639,37.626554],[127.060773,37.626268],[127.060914,37.625952],[127.061084,37.625557],[127.061122,37.625477]]},"properties":{"osm_id":625354992,"railway":"rail","service":"siding"}},{"type":"Feature","id":"osm.way.625354993","geometry":{"type":"LineString","coordinates":[[127.060089,37.627586],[127.060209,37.62738],[127.060318,37.627211]]},"properties":{"osm_id":625354993,"railway":"rail","service":"siding"}},{"type":"Feature","id":"osm.way.625354994","geometry":{"type":"LineString","coordinates":[[127.058061,37.636792],[127.058158,37.636622],[127.058259,37.636454],[127.058326,37.636334],[127.058394,37.636204],[127.058458,37.636073],[127.058509,37.635954],[127.058575,37.635788],[127.058668,37.635546],[127.058761,37.635225],[127.058828,37.634938],[127.058882,37.634645],[127.058921,37.634373]]},"properties":{"osm_id":625354994,"railway":"rail","name":"경원선","usage":"main"}},{"type":"Feature","id":"osm.way.625373253","geometry":{"type":"LineString","coordinates":[[127.063582,37.619959],[127.06354,37.620069],[127.063448,37.62027]]},"properties":{"osm_id":625373253,"railway":"rail","name":"망우선","usage":"branch","layer":"1"}},{"type":"Feature","id":"osm.way.625373256","geometry":{"type":"LineString","coordinates":[[127.063448,37.62027],[127.063306,37.620649]]},"properties":{"osm_id":625373256,"railway":"rail","name":"망우선","usage":"branch","layer":"1"}},{"type":"Feature","id":"osm.way.625373257","geometry":{"type":"LineString","coordinates":[[127.06385,37.619151],[127.064013,37.618838],[127.064155,37.618563],[127.064332,37.618173]]},"properties":{"osm_id":625373257,"railway":"rail","name":"경원선","usage":"main"}},{"type":"Feature","id":"osm.way.625373258","geometry":{"type":"LineString","coordinates":[[127.063306,37.620649],[127.063097,37.621217],[127.062912,37.621813],[127.062812,37.622069],[127.062635,37.622479],[127.062305,37.623253],[127.062185,37.623517]]},"properties":{"osm_id":625373258,"railway":"rail","name":"망우선","usage":"branch","layer":"1"}},{"type":"Feature","id":"osm.way.625376943","geometry":{"type":"LineString","coordinates":[[127.064615,37.617445],[127.064512,37.617666],[127.064346,37.618023],[127.063918,37.61891],[127.063759,37.619219],[127.063674,37.619402],[127.063599,37.619597],[127.063493,37.619884],[127.063345,37.620245],[127.063192,37.620555],[127.063064,37.620776],[127.062981,37.620909]]},"properties":{"osm_id":625376943,"railway":"rail","name":"경원선","usage":"main"}},{"type":"Feature","id":"osm.way.641568132","geometry":{"type":"LineString","coordinates":[[127.091107,37.617441],[127.089776,37.618043],[127.08633,37.619602],[127.085477,37.619896],[127.085016,37.619961],[127.083704,37.619807],[127.082245,37.619585],[127.080338,37.619222],[127.078624,37.618691],[127.077084,37.618158],[127.076691,37.618022],[127.075413,37.61758],[127.074505,37.617266],[127.073633,37.616977],[127.072152,37.616475],[127.070119,37.615865],[127.068539,37.61553],[127.065758,37.614918],[127.065423,37.614846],[127.064715,37.614686],[127.06444,37.614614],[127.063295,37.614242],[127.062617,37.613932],[127.062083,37.613637],[127.061786,37.613471],[127.061232,37.613161],[127.060897,37.612974],[127.056461,37.610571],[127.048232,37.606239],[127.044053,37.604071],[127.043509,37.603749],[127.043152,37.603496],[127.043068,37.603432],[127.042331,37.602851],[127.041779,37.602388],[127.041446,37.60195],[127.040988,37.601086],[127.040311,37.599881],[127.039727,37.598605],[127.039582,37.598248],[127.03897,37.596957],[127.037092,37.593418],[127.036315,37.592391],[127.036148,37.591778],[127.036068,37.590932],[127.035949,37.590198],[127.035859,37.589791],[127.035784,37.589503],[127.035693,37.589293],[127.035564,37.589155],[127.03289,37.5865],[127.032689,37.586434],[127.029336,37.586316]]},"properties":{"osm_id":641568132,"railway":"subway","name":"6호선","tunnel":"yes","layer":"-6"}},{"type":"Feature","id":"osm.way.642221668","geometry":{"type":"LineString","coordinates":[[127.055429,37.680449],[127.055424,37.680112],[127.055419,37.679728],[127.05539,37.678728],[127.055348,37.677137],[127.055344,37.67677],[127.055368,37.675815],[127.055359,37.675098],[127.055364,37.674807],[127.055375,37.674598],[127.055427,37.674231],[127.055554,37.673619],[127.056767,37.669062],[127.057477,37.666294],[127.057891,37.664758],[127.057976,37.664464],[127.058764,37.661235],[127.059656,37.657926],[127.060292,37.655521],[127.060353,37.655299],[127.060549,37.654608],[127.060665,37.654213],[127.060853,37.653528],[127.06139,37.651423],[127.062125,37.649131],[127.062882,37.647596],[127.063892,37.645534],[127.064793,37.643656],[127.065286,37.642566],[127.068244,37.635986],[127.068843,37.634635],[127.070004,37.632023],[127.070813,37.630171],[127.071388,37.628949],[127.073025,37.625616],[127.074713,37.620537]]},"properties":{"osm_id":642221668,"railway":"subway","name":"7호선","usage":"main","tunnel":"yes","layer":"-3"}},{"type":"Feature","id":"osm.way.712245629","geometry":{"type":"LineString","coordinates":[[127.058934,37.633917],[127.058863,37.632315],[127.058853,37.632113],[127.058848,37.632028]]},"properties":{"osm_id":712245629,"railway":"rail","name":"경원선","usage":"main"}},{"type":"Feature","id":"osm.way.712245630","geometry":{"type":"LineString","coordinates":[[127.058882,37.633919],[127.05889,37.634112],[127.05888,37.634219],[127.058875,37.634269],[127.058858,37.634375]]},"properties":{"osm_id":712245630,"railway":"rail","name":"경원선","usage":"main"}},{"type":"Feature","id":"osm.way.712245631","geometry":{"type":"LineString","coordinates":[[127.058858,37.634375],[127.058817,37.634638],[127.058776,37.634931],[127.058716,37.635211],[127.058622,37.63553],[127.058529,37.635779],[127.058464,37.635946],[127.058411,37.636052],[127.058341,37.636194],[127.058275,37.636316],[127.058212,37.636432],[127.058115,37.636611],[127.058001,37.636769]]},"properties":{"osm_id":712245631,"railway":"rail","name":"경원선","usage":"main"}},{"type":"Feature","id":"osm.way.712245632","geometry":{"type":"LineString","coordinates":[[127.058921,37.634373],[127.058939,37.63427],[127.058944,37.634113],[127.058934,37.633917]]},"properties":{"osm_id":712245632,"railway":"rail","name":"경원선","usage":"main"}},{"type":"Feature","id":"osm.way.712245636","geometry":{"type":"LineString","coordinates":[[127.058789,37.631905],[127.058792,37.632029]]},"properties":{"osm_id":712245636,"railway":"rail","name":"경원선","usage":"main"}},{"type":"Feature","id":"osm.way.712245637","geometry":{"type":"LineString","coordinates":[[127.058839,37.631904],[127.058847,37.631548],[127.058855,37.631163],[127.058881,37.630935],[127.05894,37.630573],[127.059015,37.630222],[127.059079,37.629971],[127.059135,37.629807],[127.059277,37.629425],[127.059481,37.628921],[127.059571,37.628714],[127.059914,37.627963],[127.060041,37.627695]]},"properties":{"osm_id":712245637,"railway":"rail","name":"경원선","usage":"main"}},{"type":"Feature","id":"osm.way.712245638","geometry":{"type":"LineString","coordinates":[[127.058848,37.632028],[127.058839,37.631904]]},"properties":{"osm_id":712245638,"railway":"rail","name":"경원선","usage":"main"}},{"type":"Feature","id":"osm.way.712245639","geometry":{"type":"LineString","coordinates":[[127.058792,37.632029],[127.058796,37.632126],[127.058869,37.633669],[127.058882,37.633919]]},"properties":{"osm_id":712245639,"railway":"rail","name":"경원선","usage":"main"}},{"type":"Feature","id":"osm.way.712246812","geometry":{"type":"LineString","coordinates":[[127.062981,37.620909],[127.062788,37.621232],[127.062643,37.621523],[127.062635,37.62154],[127.061948,37.623073],[127.061597,37.623886],[127.06122,37.624762],[127.061042,37.625176],[127.060937,37.625428],[127.060756,37.625832]]},"properties":{"osm_id":712246812,"railway":"rail","name":"경원선","usage":"main"}},{"type":"Feature","id":"osm.way.712248058","geometry":{"type":"LineString","coordinates":[[127.067694,37.603047],[127.067706,37.603149],[127.067736,37.603418],[127.067768,37.603795],[127.067785,37.604092],[127.067788,37.604147],[127.067791,37.604472],[127.067793,37.604956],[127.067758,37.605921],[127.067715,37.607704],[127.067681,37.609025],[127.067666,37.609319],[127.067637,37.609617],[127.067605,37.609845],[127.067561,37.610088],[127.067515,37.610296]]},"properties":{"osm_id":712248058,"railway":"rail","name":"경원선","usage":"main"}},{"type":"Feature","id":"osm.way.772651750","geometry":{"type":"LineString","coordinates":[[127.06072,37.626249],[127.060528,37.626646],[127.060351,37.627008],[127.060226,37.627288],[127.060089,37.627586]]},"properties":{"osm_id":772651750,"railway":"rail","name":"경원선","usage":"main"}},{"type":"Feature","id":"osm.way.772651751","geometry":{"type":"LineString","coordinates":[[127.064332,37.618173],[127.064438,37.61794]]},"properties":{"osm_id":772651751,"railway":"rail","name":"경원선","usage":"main"}},{"type":"Feature","id":"osm.way.772651752","geometry":{"type":"LineString","coordinates":[[127.06408,37.618857],[127.064039,37.618956],[127.063903,37.619218],[127.063837,37.619376],[127.063582,37.619959]]},"properties":{"osm_id":772651752,"railway":"rail","name":"망우선","usage":"branch","layer":"1"}},{"type":"Feature","id":"osm.way.780908614","geometry":{"type":"LineString","coordinates":[[127.06205,37.623502],[127.062774,37.621859],[127.062835,37.621717],[127.062979,37.621381],[127.063031,37.621265],[127.063306,37.620649]]},"properties":{"osm_id":780908614,"railway":"rail","service":"siding"}},{"type":"Feature","id":"osm.way.780908615","geometry":{"type":"LineString","coordinates":[[127.061717,37.623744],[127.061305,37.624694],[127.061078,37.625199]]},"properties":{"osm_id":780908615,"railway":"rail","usage":"main","service":"siding"}},{"type":"Feature","id":"osm.way.800689387","geometry":{"type":"LineString","coordinates":[[127.061137,37.625572],[127.061087,37.625682],[127.061006,37.625858],[127.060925,37.626045],[127.060905,37.626088],[127.060639,37.626666],[127.060603,37.626734],[127.060579,37.626774],[127.060318,37.627211]]},"properties":{"osm_id":800689387,"railway":"rail","service":"siding"}},{"type":"Feature","id":"osm.way.800689388","geometry":{"type":"LineString","coordinates":[[127.060041,37.627695],[127.060089,37.627586]]},"properties":{"osm_id":800689388,"railway":"rail","name":"경원선","usage":"main"}},{"type":"Feature","id":"osm.way.800689389","geometry":{"type":"LineString","coordinates":[[127.059673,37.62838],[127.059587,37.628561],[127.059485,37.628789],[127.059405,37.628991],[127.059235,37.629402],[127.059144,37.629638],[127.059044,37.629923],[127.058996,37.630096],[127.05893,37.630387],[127.058877,37.630659],[127.058822,37.631021],[127.058797,37.63128],[127.058796,37.631555],[127.058789,37.631905]]},"properties":{"osm_id":800689389,"railway":"rail","name":"경원선","usage":"main"}},{"type":"Feature","id":"osm.way.1005092809","geometry":{"type":"LineString","coordinates":[[127.068571,37.610935],[127.068804,37.610691],[127.068918,37.610534],[127.068995,37.610414],[127.069049,37.610293],[127.069084,37.610164],[127.069098,37.610044],[127.069109,37.609079],[127.069111,37.609002]]},"properties":{"osm_id":1005092809,"railway":"rail","service":"yard"}},{"type":"Feature","id":"osm.way.1005092810","geometry":{"type":"LineString","coordinates":[[127.067981,37.61155],[127.068159,37.611345],[127.068329,37.611168],[127.068571,37.610935],[127.068869,37.610672],[127.068983,37.610541],[127.06909,37.610382],[127.069153,37.610225],[127.069188,37.610075],[127.069203,37.609905],[127.069219,37.6092],[127.069221,37.609026],[127.069224,37.60899]]},"properties":{"osm_id":1005092810,"railway":"rail","service":"yard"}},{"type":"Feature","id":"osm.way.1005092811","geometry":{"type":"LineString","coordinates":[[127.066265,37.613589],[127.066165,37.613811],[127.066067,37.614026]]},"properties":{"osm_id":1005092811,"railway":"rail","name":"경원선","usage":"main"}},{"type":"Feature","id":"osm.way.1005092812","geometry":{"type":"LineString","coordinates":[[127.066195,37.614064],[127.066282,37.61385],[127.066349,37.613686],[127.066378,37.613621]]},"properties":{"osm_id":1005092812,"railway":"rail","name":"경원선","usage":"main"}},{"type":"Feature","id":"osm.way.1005092813","geometry":{"type":"LineString","coordinates":[[127.066438,37.613641],[127.066432,37.61366],[127.066248,37.61408]]},"properties":{"osm_id":1005092813,"railway":"rail","name":"망우선","usage":"branch","layer":"1"}},{"type":"Feature","id":"osm.way.1005092814","geometry":{"type":"LineString","coordinates":[[127.066488,37.613651],[127.066452,37.613736],[127.066368,37.61391],[127.066292,37.614092]]},"properties":{"osm_id":1005092814,"railway":"rail","service":"yard"}},{"type":"Feature","id":"osm.way.1005092815","geometry":{"type":"LineString","coordinates":[[127.067515,37.610296],[127.067488,37.610396],[127.067364,37.610887],[127.06726,37.611288],[127.067159,37.611578],[127.06704,37.611859],[127.066733,37.612534],[127.066265,37.613589]]},"properties":{"osm_id":1005092815,"railway":"rail","name":"경원선","usage":"main"}},{"type":"Feature","id":"osm.way.1005092816","geometry":{"type":"LineString","coordinates":[[127.066378,37.613621],[127.066415,37.613536],[127.067161,37.61185],[127.067276,37.611539],[127.067466,37.610762],[127.067579,37.610304]]},"properties":{"osm_id":1005092816,"railway":"rail","name":"경원선","usage":"main"}},{"type":"Feature","id":"osm.way.1005092817","geometry":{"type":"LineString","coordinates":[[127.067626,37.610311],[127.06746,37.610998],[127.067342,37.611494],[127.067289,37.611665],[127.067226,37.611829],[127.066585,37.613317],[127.066438,37.613641]]},"properties":{"osm_id":1005092817,"railway":"rail","name":"망우선","usage":"branch","layer":"1"}},{"type":"Feature","id":"osm.way.1005092818","geometry":{"type":"LineString","coordinates":[[127.06684,37.612862],[127.066681,37.613245],[127.066529,37.61358],[127.066488,37.613651]]},"properties":{"osm_id":1005092818,"railway":"rail","service":"yard"}},{"type":"Feature","id":"osm.way.1005092819","geometry":{"type":"LineString","coordinates":[[127.066681,37.613245],[127.066824,37.612968],[127.066868,37.612888]]},"properties":{"osm_id":1005092819,"railway":"rail","service":"yard"}},{"type":"Feature","id":"osm.way.1005092820","geometry":{"type":"LineString","coordinates":[[127.066861,37.612887],[127.066846,37.61292],[127.066824,37.612968]]},"properties":{"osm_id":1005092820,"railway":"rail","service":"yard"}},{"type":"Feature","id":"osm.way.1005092821","geometry":{"type":"LineString","coordinates":[[127.066921,37.61294],[127.066897,37.61298],[127.066529,37.61358]]},"properties":{"osm_id":1005092821,"railway":"rail","service":"yard"}},{"type":"Feature","id":"osm.way.1005092822","geometry":{"type":"LineString","coordinates":[[127.066915,37.612938],[127.066897,37.61298]]},"properties":{"osm_id":1005092822,"railway":"rail","service":"yard"}},{"type":"Feature","id":"osm.way.1107051085","geometry":{"type":"LineString","coordinates":[[127.05526,37.675283],[127.055248,37.674924],[127.055264,37.674635],[127.055308,37.674218],[127.055418,37.673597],[127.056573,37.669066],[127.057338,37.666259],[127.057757,37.664742],[127.058578,37.661274],[127.059498,37.657897],[127.060196,37.655508],[127.060254,37.655284],[127.060382,37.654792],[127.060516,37.65433],[127.060742,37.653516],[127.060862,37.653091],[127.06124,37.65145],[127.061629,37.650132],[127.06203,37.649102],[127.062845,37.647584],[127.063855,37.645523],[127.064756,37.643645],[127.065249,37.642556],[127.068207,37.635975],[127.068805,37.634624],[127.069967,37.632012],[127.070775,37.63016],[127.07135,37.628939],[127.072987,37.625606],[127.075081,37.619255],[127.075457,37.618118],[127.075576,37.617765],[127.075622,37.617632],[127.075741,37.617256]]},"properties":{"osm_id":1107051085,"railway":"subway","name":"7호선","usage":"main","tunnel":"yes","layer":"-3"}},{"type":"Feature","id":"osm.way.1116747278","geometry":{"type":"LineString","coordinates":[[127.064806,37.617436],[127.064485,37.617982]]},"properties":{"osm_id":1116747278,"railway":"rail","service":"crossover"}},{"type":"Feature","id":"osm.way.1120987653","geometry":{"type":"LineString","coordinates":[[127.041013,37.601053],[127.041352,37.601674],[127.041489,37.601924],[127.041823,37.602364],[127.042386,37.602839],[127.043192,37.603454],[127.043635,37.603739],[127.044088,37.60403],[127.048257,37.606207],[127.056491,37.610534],[127.060937,37.612933],[127.062121,37.61359],[127.062645,37.613891],[127.06332,37.614201],[127.064727,37.614654],[127.065768,37.614876],[127.068565,37.615489],[127.070132,37.615822],[127.07216,37.61644],[127.073654,37.616935],[127.074529,37.617225],[127.075092,37.617419],[127.075283,37.617485],[127.076183,37.617794],[127.076493,37.617901],[127.076539,37.617917],[127.076847,37.618023],[127.078646,37.618642],[127.080363,37.619169],[127.082262,37.619538],[127.083717,37.619756],[127.085024,37.619912],[127.085462,37.619845],[127.086302,37.619562],[127.091075,37.617393]]},"properties":{"osm_id":1120987653,"railway":"subway","name":"6호선","usage":"main","tunnel":"yes","layer":"-6"}},{"type":"Feature","id":"osm.way.1160850752","geometry":{"type":"LineString","coordinates":[[127.062185,37.623517],[127.061782,37.624419],[127.061718,37.624564],[127.061667,37.624666],[127.061514,37.624974],[127.061398,37.625171]]},"properties":{"osm_id":1160850752,"railway":"rail","service":"siding","layer":"1"}},{"type":"Feature","id":"osm.way.1382987332","geometry":{"type":"LineString","coordinates":[[127.063759,37.620071],[127.063732,37.620704],[127.063699,37.6209],[127.063646,37.621214]]},"properties":{"osm_id":1382987332,"railway":"rail","service":"siding"}},{"type":"Feature","id":"osm.way.1382987333","geometry":{"type":"LineString","coordinates":[[127.06372,37.621383],[127.063676,37.62167],[127.0636,37.622115],[127.063545,37.622322],[127.063214,37.623073],[127.062968,37.623607],[127.062808,37.623955],[127.062674,37.624179],[127.062484,37.624394]]},"properties":{"osm_id":1382987333,"railway":"rail","service":"siding"}},{"type":"Feature","id":"osm.way.1382987334","geometry":{"type":"LineString","coordinates":[[127.061916,37.624983],[127.061676,37.625179]]},"properties":{"osm_id":1382987334,"railway":"rail","service":"siding"}},{"type":"Feature","id":"osm.way.1382987335","geometry":{"type":"LineString","coordinates":[[127.063663,37.620553],[127.0637,37.620372],[127.063759,37.620071]]},"properties":{"osm_id":1382987335,"railway":"rail","service":"yard"}},{"type":"Feature","id":"osm.way.1382987337","geometry":{"type":"LineString","coordinates":[[127.063827,37.619693],[127.063759,37.620071]]},"properties":{"osm_id":1382987337,"railway":"rail","service":"siding"}},{"type":"Feature","id":"osm.way.1382987338","geometry":{"type":"LineString","coordinates":[[127.064039,37.618956],[127.063909,37.619462]]},"properties":{"osm_id":1382987338,"railway":"rail","service":"siding"}},{"type":"Feature","id":"osm.way.1382987339","geometry":{"type":"LineString","coordinates":[[127.063909,37.619462],[127.063827,37.619693]]},"properties":{"osm_id":1382987339,"railway":"rail","service":"siding"}},{"type":"Feature","id":"osm.way.1411448927","geometry":{"type":"LineString","coordinates":[[127.066415,37.613536],[127.066454,37.613367],[127.066801,37.612549]]},"properties":{"osm_id":1411448927,"railway":"rail","service":"yard"}},{"type":"Feature","id":"osm.way.1419920374","geometry":{"type":"LineString","coordinates":[[127.061269,37.62502],[127.061424,37.624677],[127.062069,37.623203]]},"properties":{"osm_id":1419920374,"railway":"rail","name":"경원선","usage":"main"}},{"type":"Feature","id":"osm.way.1425300863","geometry":{"type":"LineString","coordinates":[[127.062231,37.624706],[127.062575,37.624386],[127.062672,37.62427],[127.06283,37.624047],[127.062926,37.623877],[127.063048,37.6236],[127.063279,37.623109],[127.063292,37.623077]]},"properties":{"osm_id":1425300863,"railway":"rail","service":"yard"}},{"type":"Feature","id":"osm.way.1425300864","geometry":{"type":"LineString","coordinates":[[127.063292,37.623077],[127.063478,37.622624]]},"properties":{"osm_id":1425300864,"railway":"rail","service":"yard"}}]}