{"type":"FeatureCollection","timestamp":"2026-10-04T17:09:05Z","features":[{"type":"Feature","id":"osm.node.355172771","geometry":{"type":"Point","coordinates":[127.058865,37.633063]},"properties":{"osm_id":355172771,"name":"월계","name:en":"Wolgye","railway":"station","station":"subway","subway":"yes","station_bearing":2,"station_lines":"1호선","station_colours":"#004A85"}},{"type":"Feature","id":"osm.node.355172776","geometry":{"type":"Point","coordinates":[127.061819,37.623699]},"properties":{"osm_id":355172776,"name":"광운대","name:en":"Kwangwoon University","railway":"station","station":"subway","subway":"yes","station_bearing":161,"station_lines":"경춘선;1호선","station_colours":"#007A62;#004A85"}},{"type":"Feature","id":"osm.node.6041673026","geometry":{"type":"Point","coordinates":[127.065839,37.614808]},"properties":{"osm_id":6041673026,"name":"석계","name:en":"Seokgye","railway":"station","station":"subway","subway":"yes","station_bearing":161,"station_lines":"6호선;1호선","station_colours":"#7C4932;#004A85"}},{"type":"Feature","id":"osm.node.6041673029","geometry":{"type":"Point","coordinates":[127.056493,37.610566]},"properties":{"osm_id":6041673029,"name":"돌곶이","name:en":"Dolgoji","railway":"station","station":"subway","subway":"yes","station_bearing":56,"station_lines":"6호선","station_colours":"#7C4932"}},{"type":"Feature","id":"osm.node.6046633874","geometry":{"type":"Point","coordinates":[127.073044,37.625636]},"properties":{"osm_id":6046633874,"name":"공릉","name:en":"Gongneung","railway":"station","station":"subway","subway":"yes","station_bearing":159,"station_lines":"7호선","station_colours":"#6E7E31"}}]}