{"type":"FeatureCollection","timestamp":"2026-10-04T17:09:05Z","features":[{"type":"Feature","id":"osm.node.357864451","geometry":{"type":"Point","coordinates":[127.058501,37.634355]},"properties":{"osm_id":357864451,"ref":"2","station_id":"osm.node.355172771","station_name":"월계"}},{"type":"Feature","id":"osm.node.3401296538","geometry":{"type":"Point","coordinates":[127.066626,37.615273]},"properties":{"osm_id":3401296538,"ref":"2","station_id":"osm.node.6041673026","station_name":"석계"}},{"type":"Feature","id":"osm.node.3401296539","geometry":{"type":"Point","coordinates":[127.067557,37.615467]},"properties":{"osm_id":3401296539,"ref":"3","station_id":"osm.node.6041673026","station_name":"석계"}},{"type":"Feature","id":"osm.node.3401296540","geometry":{"type":"Point","coordinates":[127.06531,37.614965]},"properties":{"osm_id":3401296540,"ref":"1","station_id":"osm.node.6041673026","station_name":"석계"}},{"type":"Feature","id":"osm.node.3401296541","geometry":{"type":"Point","coordinates":[127.065661,37.614548]},"properties":{"osm_id":3401296541,"ref":"6","station_id":"osm.node.6041673026","station_name":"석계"}},{"type":"Feature","id":"osm.node.3401296542","geometry":{"type":"Point","coordinates":[127.065136,37.614409]},"properties":{"osm_id":3401296542,"ref":"7","station_id":"osm.node.6041673026","station_name":"석계"}},{"type":"Feature","id":"osm.node.3401296543","geometry":{"type":"Point","coordinates":[127.065879,37.613779]},"properties":{"osm_id":3401296543,"ref":"5","station_id":"osm.node.6041673026","station_name":"석계"}},{"type":"Feature","id":"osm.node.3401296544","geometry":{"type":"Point","coordinates":[127.066717,37.614772]},"properties":{"osm_id":3401296544,"ref":"4","station_id":"osm.node.6041673026","station_name":"석계"}},{"type":"Feature","id":"osm.node.3401296545","geometry":{"type":"Point","coordinates":[127.056814,37.611116]},"properties":{"osm_id":3401296545,"ref":"3","station_id":"osm.node.6041673029","station_name":"돌곶이"}},{"type":"Feature","id":"osm.node.3401296546","geometry":{"type":"Point","coordinates":[127.057218,37.611137]},"properties":{"osm_id":3401296546,"ref":"4","station_id":"osm.node.6041673029","station_name":"돌곶이"}},{"type":"Feature","id":"osm.node.3401296547","geometry":{"type":"Point","coordinates":[127.057563,37.610958]},"properties":{"osm_id":3401296547,"ref":"5","station_id":"osm.node.6041673029","station_name":"돌곶이"}},{"type":"Feature","id":"osm.node.3401296548","geometry":{"type":"Point","coordinates":[127.057418,37.610572]},"properties":{"osm_id":3401296548,"ref":"6","station_id":"osm.node.6041673029","station_name":"돌곶이"}},{"type":"Feature","id":"osm.node.3401296549","geometry":{"type":"Point","coordinates":[127.057283,37.610496]},"properties":{"osm_id":3401296549,"ref":"7","station_id":"osm.node.6041673029","station_name":"돌곶이"}},{"type":"Feature","id":"osm.node.3401296550","geometry":{"type":"Point","coordinates":[127.056504,37.610766]},"properties":{"osm_id":3401296550,"ref":"1","station_id":"osm.node.6041673029","station_name":"돌곶이"}},{"type":"Feature","id":"osm.node.3401296551","geometry":{"type":"Point","coordinates":[127.056755,37.610499]},"properties":{"osm_id":3401296551,"ref":"8","station_id":"osm.node.6041673029","station_name":"돌곶이"}},{"type":"Feature","id":"osm.node.3401296552","geometry":{"type":"Point","coordinates":[127.056492,37.611194]},"properties":{"osm_id":3401296552,"ref":"2","station_id":"osm.node.6041673029","station_name":"돌곶이"}},{"type":"Feature","id":"osm.node.3401383828","geometry":{"type":"Point","coordinates":[127.073081,37.625821]},"properties":{"osm_id":3401383828,"ref":"1","station_id":"osm.node.6046633874","station_name":"공릉"}},{"type":"Feature","id":"osm.node.3401383829","geometry":{"type":"Point","coordinates":[127.072788,37.625777]},"properties":{"osm_id":3401383829,"ref":"4","station_id":"osm.node.6046633874","station_name":"공릉"}},{"type":"Feature","id":"osm.node.3401383830","geometry":{"type":"Point","coordinates":[127.072956,37.62531]},"properties":{"osm_id":3401383830,"ref":"3","station_id":"osm.node.6046633874","station_name":"공릉"}},{"type":"Feature","id":"osm.node.3401383831","geometry":{"type":"Point","coordinates":[127.072771,37.623961]},"properties":{"osm_id":3401383831,"ref":"2","station_id":"osm.node.6046633874","station_name":"공릉"}},{"type":"Feature","id":"osm.node.3404991213","geometry":{"type":"Point","coordinates":[127.05908,37.634033]},"properties":{"osm_id":3404991213,"ref":"1","station_id":"osm.node.355172771","station_name":"월계"}},{"type":"Feature","id":"osm.node.3404991214","geometry":{"type":"Point","coordinates":[127.058754,37.631709]},"properties":{"osm_id":3404991214,"ref":"3","station_id":"osm.node.355172771","station_name":"월계"}},{"type":"Feature","id":"osm.node.3404991215","geometry":{"type":"Point","coordinates":[127.061362,37.623574]},"properties":{"osm_id":3404991215,"ref":"2","station_id":"osm.node.355172776","station_name":"광운대"}},{"type":"Feature","id":"osm.node.3404991216","geometry":{"type":"Point","coordinates":[127.061506,37.623327]},"properties":{"osm_id":3404991216,"ref":"1","wheelchair":"yes","station_id":"osm.node.355172776","station_name":"광운대"}},{"type":"Feature","id":"osm.node.3404991217","geometry":{"type":"Point","coordinates":[127.061972,37.622961]},"properties":{"osm_id":3404991217,"ref":"3","wheelchair":"yes","station_id":"osm.node.355172776","station_name":"광운대"}},{"type":"Feature","id":"osm.node.4700415636","geometry":{"type":"Point","coordinates":[127.058961,37.631738]},"properties":{"osm_id":4700415636,"ref":"4","station_id":"osm.node.355172771","station_name":"월계"}},{"type":"Feature","id":"osm.node.5546840553","geometry":{"type":"Point","coordinates":[127.073281,37.625376]},"properties":{"osm_id":5546840553,"ref":"2","wheelchair":"yes","station_id":"osm.node.6046633874","station_name":"공릉"}}]}