{"type":"FeatureCollection","timestamp":"2026-10-04T17:09:05Z","features":[{"type":"Feature","id":"osm.relation.7919153","geometry":{"type":"MultiLineString","coordinates":[[[127.074505,37.617266],[127.073633,37.616977],[127.072152,37.616475],[127.070119,37.615865],[127.068539,37.61553],[127.065758,37.614918],[127.065423,37.614846],[127.064715,37.614686],[127.06444,37.614614],[127.063295,37.614242],[127.062617,37.613932],[127.062083,37.613637],[127.061786,37.613471],[127.061232,37.613161],[127.060897,37.612974],[127.056461,37.610571],[127.048232,37.606239]]]},"properties":{"osm_id":7919153,"route":"subway","ref":"6","network":"수도권 전철","operator":"서울교통공사","line_label":"6호선","line_colour":"#7C4932"}},{"type":"Feature","id":"osm.relation.8656359","geometry":{"type":"MultiLineString","coordinates":[[[127.067709,37.609821],[127.067661,37.610136],[127.067626,37.610311]],[[127.067626,37.610311],[127.06746,37.610998],[127.067342,37.611494],[127.067289,37.611665],[127.067226,37.611829],[127.066585,37.613317],[127.066438,37.613641]],[[127.066438,37.613641],[127.066432,37.61366],[127.066248,37.61408]],[[127.066248,37.61408],[127.066113,37.614408],[127.065907,37.614894]],[[127.065907,37.614894],[127.0658,37.615145],[127.065574,37.61564],[127.065454,37.615924],[127.065338,37.616155],[127.06523,37.616359],[127.065156,37.61651],[127.065037,37.616775]],[[127.065037,37.616775],[127.064915,37.617056]],[[127.064915,37.617056],[127.064665,37.617594],[127.064485,37.617982],[127.064389,37.618188],[127.064241,37.618527],[127.064186,37.618647],[127.06408,37.618857]],[[127.06408,37.618857],[127.064039,37.618956],[127.063903,37.619218],[127.063837,37.619376],[127.063582,37.619959]],[[127.063582,37.619959],[127.06354,37.620069],[127.063448,37.62027]],[[127.063448,37.62027],[127.063306,37.620649]],[[127.063306,37.620649],[127.063097,37.621217],[127.062912,37.621813],[127.062812,37.622069],[127.062635,37.622479],[127.062305,37.623253],[127.062185,37.623517]]]},"properties":{"osm_id":8656359,"route":"train","ref":"경춘","network":"수도권 전철","operator":"한국철도공사","line_label":"경춘선","line_colour":"#007A62"}},{"type":"Feature","id":"osm.relation.8691809","geometry":{"type":"MultiLineString","coordinates":[[[127.058882,37.634645],[127.058921,37.634373]],[[127.058921,37.634373],[127.058939,37.63427],[127.058944,37.634113],[127.058934,37.633917]],[[127.058934,37.633917],[127.058863,37.632315],[127.058853,37.632113],[127.058848,37.632028]],[[127.058848,37.632028],[127.058839,37.631904]],[[127.058839,37.631904],[127.058847,37.631548],[127.058855,37.631163],[127.058881,37.630935],[127.05894,37.630573],[127.059015,37.630222],[127.059079,37.629971],[127.059135,37.629807],[127.059277,37.629425],[127.059481,37.628921],[127.059571,37.628714],[127.059914,37.627963],[127.060041,37.627695]],[[127.060041,37.627695],[127.060089,37.627586]],[[127.06072,37.626249],[127.060528,37.626646],[127.060351,37.627008],[127.060226,37.627288],[127.060089,37.627586]],[[127.06072,37.626249],[127.060894,37.625868],[127.060988,37.625664],[127.061093,37.625422],[127.061269,37.62502]],[[127.061269,37.62502],[127.061424,37.624677],[127.062069,37.623203]],[[127.062069,37.623203],[127.062112,37.62311],[127.062518,37.622207],[127.063001,37.621108]],[[127.063001,37.621108],[127.063243,37.620586],[127.063426,37.620188],[127.063505,37.620022],[127.06365,37.61962],[127.063741,37.619393],[127.06385,37.619151]],[[127.06385,37.619151],[127.064013,37.618838],[127.064155,37.618563],[127.064332,37.618173]],[[127.064332,37.618173],[127.064438,37.61794]],[[127.064438,37.61794],[127.0646,37.617584],[127.064853,37.617038]],[[127.064853,37.617038],[127.064976,37.616758]],[[127.064976,37.616758],[127.065077,37.616545],[127.065163,37.616372],[127.065292,37.616123],[127.065391,37.61593],[127.06576,37.615115],[127.065859,37.614879]],[[127.065859,37.614879],[127.066062,37.614397],[127.066148,37.614182],[127.066195,37.614064]],[[127.066195,37.614064],[127.066282,37.61385],[127.066349,37.613686],[127.066378,37.613621]],[[127.066378,37.613621],[127.066415,37.613536],[127.067161,37.61185],[127.067276,37.611539],[127.067466,37.610762],[127.067579,37.610304]],[[127.067579,37.610304],[127.067665,37.609801]]]},"properties":{"osm_id":8691809,"route":"subway","ref":"1","network":"수도권 전철","operator":"한국철도공사","line_label":"1호선","line_colour":"#004A85"}},{"type":"Feature","id":"osm.relation.10727492","geometry":{"type":"MultiLineString","coordinates":[[[127.068805,37.634624],[127.069967,37.632012],[127.070775,37.63016],[127.07135,37.628939],[127.072987,37.625606],[127.075081,37.619255]]]},"properties":{"osm_id":10727492,"route":"subway","ref":"7","network":"수도권 전철","operator":"서울교통공사","line_label":"7호선","line_colour":"#6E7E31"}}]}