{"type":"FeatureCollection","features":[{"type":"Feature","properties":{"label":"광운대학교","minZoom":14.7,"priority":1,"kind":"campus"},"geometry":{"type":"Point","coordinates":[127.057809,37.619749]}},{"type":"Feature","properties":{"label":"인덕대학교","minZoom":14.9,"priority":2,"kind":"campus"},"geometry":{"type":"Point","coordinates":[127.05487,37.63101]}},{"type":"Feature","properties":{"label":"이마트 월계점","minZoom":15.1,"priority":3,"kind":"public"},"geometry":{"type":"Point","coordinates":[127.061748,37.62722]}},{"type":"Feature","properties":{"label":"월계1동 주민센터","minZoom":15.2,"priority":4,"kind":"public"},"geometry":{"type":"Point","coordinates":[127.062875,37.619998]}},{"type":"Feature","properties":{"label":"월계문화체육센터","minZoom":15.4,"priority":5,"kind":"public"},"geometry":{"type":"Point","coordinates":[127.054734,37.626642]}},{"type":"Feature","properties":{"label":"월계문화정보도서관","minZoom":15.4,"priority":6,"kind":"public"},"geometry":{"type":"Point","coordinates":[127.056123,37.628641]}},{"type":"Feature","properties":{"label":"해인병원","minZoom":15.5,"priority":7,"kind":"public"},"geometry":{"type":"Point","coordinates":[127.051058,37.622457]}},{"type":"Feature","properties":{"label":"광운대 공공기숙사","minZoom":15.6,"priority":8,"kind":"campus"},"geometry":{"type":"Point","coordinates":[127.056397,37.621432]}},{"type":"Feature","properties":{"label":"광운중·고등학교","minZoom":15.8,"priority":9,"kind":"school"},"geometry":{"type":"Point","coordinates":[127.055956,37.621019]}},{"type":"Feature","properties":{"label":"광운초등학교","minZoom":16,"priority":10,"kind":"school"},"geometry":{"type":"Point","coordinates":[127.05502,37.618939]}},{"type":"Feature","properties":{"label":"남대문중학교","minZoom":16,"priority":11,"kind":"school"},"geometry":{"type":"Point","coordinates":[127.055806,37.618563]}},{"type":"Feature","properties":{"label":"선곡초등학교","minZoom":16,"priority":12,"kind":"school"},"geometry":{"type":"Point","coordinates":[127.058148,37.618449]}},{"type":"Feature","properties":{"label":"월계동성당","minZoom":16.1,"priority":13,"kind":"public"},"geometry":{"type":"Point","coordinates":[127.060442,37.624352]}},{"type":"Feature","properties":{"label":"월계고등학교","minZoom":16.1,"priority":14,"kind":"school"},"geometry":{"type":"Point","coordinates":[127.048691,37.63168]}},{"type":"Feature","properties":{"label":"월계중학교","minZoom":16.1,"priority":15,"kind":"school"},"geometry":{"type":"Point","coordinates":[127.052186,37.630506]}},{"type":"Feature","properties":{"label":"월계초등학교","minZoom":16.1,"priority":16,"kind":"school"},"geometry":{"type":"Point","coordinates":[127.050615,37.627687]}},{"type":"Feature","properties":{"label":"그랑빌아파트","minZoom":16.4,"priority":20,"kind":"residence"},"geometry":{"type":"Point","coordinates":[127.068333,37.617735]}},{"type":"Feature","properties":{"label":"월계센트럴아이파크","minZoom":16.4,"priority":21,"kind":"residence"},"geometry":{"type":"Point","coordinates":[127.057509,37.630271]}},{"type":"Feature","properties":{"label":"롯데캐슬 루나","minZoom":16.5,"priority":22,"kind":"residence"},"geometry":{"type":"Point","coordinates":[127.049837,37.626546]}},{"type":"Feature","properties":{"label":"월계대우아파트","minZoom":16.5,"priority":23,"kind":"residence"},"geometry":{"type":"Point","coordinates":[127.051405,37.633217]}},{"type":"Feature","properties":{"label":"두산아파트","minZoom":16.6,"priority":24,"kind":"residence"},"geometry":{"type":"Point","coordinates":[127.068516,37.612395]}}]}